region,province,city,actual_name,ownership,type_of_testing,license_validity,index,current_distance,gmaps_url,mapping_address,lat,lng
NCR,Metro Manila,Muntilupa City,Asian Hospital and Medical Center,PRIVATE,rRT PCR,01/01/22 - 12/31/22,0,Click the compass to find out!,https://www.google.com/maps/dir/?api=1,Metro Manila NCR Muntilupa City Asian Hospital and Medical Center,14.4134655,121.0435335
NCR,Metro Manila,City of Manila,Chinese General Hospital,PRIVATE,rRT PCR,01/08/22 - 12/31/22,1,Click the compass to find out!,https://www.google.com/maps/dir/?api=1,Metro Manila NCR City of Manila Chinese General Hospital,14.6255846,120.9886466
NCR,Metro Manila,Mandaluyong City,Detoxicare Molecular Diagnostics Laboratory,PRIVATE,rRT PCR,01/01/22 - 12/31/22,2,Click the compass to find out!,https://www.google.com/maps/dir/?api=1,Metro Manila NCR Mandaluyong City Detoxicare Molecular Diagnostics Laboratory,14.5913357,121.0328688
NCR,Metro Manila,Caloocan City,Dr. Jose N. Rodriguez Memorial Hospital and Sanitarium (Tala),PUBLIC,Cartridge - Based PCR,01/01/22 - 12/31/22,3,Click the compass to find out!,https://www.google.com/maps/dir/?api=1,Metro Manila NCR Caloocan City Dr. Jose N. Rodriguez Memorial Hospital and Sanitarium (Tala),14.7667237,121.0648419
NCR,Metro Manila,Caloocan City,Dr. Jose N. Rodriguez Memorial Hospital and Sanitarium (Tala),PUBLIC,rRT PCR,01/01/22 - 12/31/22,4,Click the compass to find out!,https://www.google.com/maps/dir/?api=1,Metro Manila NCR Caloocan City Dr. Jose N. Rodriguez Memorial Hospital and Sanitarium (Tala),14.7667237,121.0648419
NCR,Metro Manila,Quezon City,Lung Center of the Philippines (LCP),PUBLIC,rRT PCR,01/01/22 - 12/31/22,5,Click the compass to find out!,https://www.google.com/maps/dir/?api=1,Metro Manila NCR Quezon City Lung Center of the Philippines (LCP),14.6477279,121.0452136
NCR,Metro Manila,Quezon City,Lung Center of the Philippines (GeneXpert),PUBLIC,Cartridge - Based PCR,01/01/22 - 12/31/22,6,Click the compass to find out!,https://www.google.com/maps/dir/?api=1,Metro Manila NCR Quezon City Lung Center of the Philippines (GeneXpert),14.6477279,121.0452136
NCR,Metro Manila,Makati City,Makati Medical Center,PRIVATE,rRT PCR,01/01/22 - 12/31/22,7,Click the compass to find out!,https://www.google.com/maps/dir/?api=1,Metro Manila NCR Makati City Makati Medical Center,14.559146,121.0145867
NCR,Metro Manila,Marikina City,Marikina Molecular Diagnostic laboratory,PUBLIC,rRT PCR,01/01/22 - 12/31/22,8,Click the compass to find out!,https://www.google.com/maps/dir/?api=1,Metro Manila NCR Marikina City Marikina Molecular Diagnostic laboratory,14.650867,121.1104548
NCR,Metro Manila,Quezon City,Philippine Genome Center UP-Diliman (NHB),PUBLIC,rRT PCR,01/01/22 - 12/31/22,9,Click the compass to find out!,https://www.google.com/maps/dir/?api=1,Metro Manila NCR Quezon City Philippine Genome Center UP-Diliman (NHB),14.6515671,121.0716841
NCR,Metro Manila,Mandaluyong City,Philippine Red Cross - National Blood Center,PRIVATE,rRT PCR,01/01/22 - 12/31/22,10,Click the compass to find out!,https://www.google.com/maps/dir/?api=1,Metro Manila NCR Mandaluyong City Philippine Red Cross - National Blood Center,14.5794443,121.0359174
NCR,Metro Manila,Mandaluyong City,Philippine Red Cross Logistics and Multipurpose Center,PRIVATE,rRT PCR,01/01/22 - 12/31/22,11,Click the compass to find out!,https://www.google.com/maps/dir/?api=1,Metro Manila NCR Mandaluyong City Philippine Red Cross Logistics and Multipurpose Center,14.5794443,121.0359174
NCR,Metro Manila,City of Manila,Philippine Red Cross - Port Area,PRIVATE,rRT PCR,01/01/22 - 12/31/22,12,Click the compass to find out!,https://www.google.com/maps/dir/?api=1,Metro Manila NCR City of Manila Philippine Red Cross - Port Area,14.59134,120.969955
NCR,Metro Manila,Muntinlupa City,"Research Institute for Tropical Medicine, Inc. (RITM)",PUBLIC,rRT PCR,01/01/22 - 12/31/22,13,Click the compass to find out!,https://www.google.com/maps/dir/?api=1,"Metro Manila NCR Muntinlupa City Research Institute for Tropical Medicine, Inc. (RITM)",14.4098693,121.0372225
NCR,Metro Manila,City of Manila,San Lazaro Hospital (SLH),PUBLIC,rRT PCR,01/01/22 - 12/31/22,14,Click the compass to find out!,https://www.google.com/maps/dir/?api=1,Metro Manila NCR City of Manila San Lazaro Hospital (SLH),14.6137163,120.9809048
NCR,Metro Manila,Makati City,"Singapore Diagnostic, Inc.",PRIVATE,rRT PCR,01/01/22 - 12/31/22,15,Click the compass to find out!,https://www.google.com/maps/dir/?api=1,"Metro Manila NCR Makati City Singapore Diagnostic, Inc.",14.5574945,121.017317
NCR,Metro Manila,Taguig City,St. Luke's Medical Center - BGC (HB),PRIVATE,rRT PCR,01/01/22 - 12/31/22,16,Click the compass to find out!,https://www.google.com/maps/dir/?api=1,Metro Manila NCR Taguig City St. Luke's Medical Center - BGC (HB),14.5548735,121.0483456
NCR,Metro Manila,Taguig City,St. Luke's Medical Center - BGC (HB),PRIVATE,Cartridge - Based PCR,01/01/22 - 12/31/22,17,Click the compass to find out!,https://www.google.com/maps/dir/?api=1,Metro Manila NCR Taguig City St. Luke's Medical Center - BGC (HB),14.5548735,121.0483456
NCR,Metro Manila,Quezon City,St. Luke's Medical Center- QC,PRIVATE,rRT PCR,01/01/22 - 12/31/22,18,Click the compass to find out!,https://www.google.com/maps/dir/?api=1,Metro Manila NCR Quezon City St. Luke's Medical Center- QC,14.6225328,121.0232452
NCR,Metro Manila,Quezon City,St. Luke's Medical Center- QC,PRIVATE,Cartridge - Based PCR,01/01/22 - 12/31/22,19,Click the compass to find out!,https://www.google.com/maps/dir/?api=1,Metro Manila NCR Quezon City St. Luke's Medical Center- QC,14.6225328,121.0232452
NCR,Metro Manila,Pasig City,The Medical City - Ortigas,PRIVATE,rRT PCR,01/01/22 - 12/31/22,20,Click the compass to find out!,https://www.google.com/maps/dir/?api=1,Metro Manila NCR Pasig City The Medical City - Ortigas,14.5899034,121.0693605
NCR,Metro Manila,Mandaluyong City,"Safeguard DNA Diagnostic, Inc.",PRIVATE,rRT PCR,01/01/22 - 12/31/22,21,Click the compass to find out!,https://www.google.com/maps/dir/?api=1,"Metro Manila NCR Mandaluyong City Safeguard DNA Diagnostic, Inc.",14.5829425,121.0519855
NCR,Metro Manila,City of Manila,Tondo Medical Center (GeneXpert),PUBLIC,Cartridge - Based PCR,01/01/22 - 12/31/22,22,Click the compass to find out!,https://www.google.com/maps/dir/?api=1,Metro Manila NCR City of Manila Tondo Medical Center (GeneXpert),14.6348716,120.9630926
NCR,Metro Manila,Makati City,Tropical Disease Foundation. Inc.,PRIVATE,rRT PCR,01/01/22 - 12/31/22,23,Click the compass to find out!,https://www.google.com/maps/dir/?api=1,Metro Manila NCR Makati City Tropical Disease Foundation. Inc.,14.559704,121.014365
NCR,Metro Manila,Quezon City,Hi-Precision Diagnostic Center (QC),PRIVATE,rRT PCR,01/01/22 - 12/31/22,24,Click the compass to find out!,https://www.google.com/maps/dir/?api=1,Metro Manila NCR Quezon City Hi-Precision Diagnostic Center (QC),14.7046191,121.0814909
NCR,Metro Manila,Mandaluyong City,San Miguel Foundation Testing Laboratory,PRIVATE,rRT PCR,01/01/22 - 12/31/22,25,Click the compass to find out!,https://www.google.com/maps/dir/?api=1,Metro Manila NCR Mandaluyong City San Miguel Foundation Testing Laboratory,14.5864866,121.0558256
NCR,Metro Manila,Quezon City,National Kidney and Transplant Institute (NKTI),PUBLIC,rRT PCR,01/01/22 - 12/31/22,26,Click the compass to find out!,https://www.google.com/maps/dir/?api=1,Metro Manila NCR Quezon City National Kidney and Transplant Institute (NKTI),14.6473447,121.0473288
NCR,Metro Manila,Quezon City,National Kidney and Transplant Institute (NKTI),PUBLIC,Cartridge - Based PCR,01/01/22 - 12/31/22,27,Click the compass to find out!,https://www.google.com/maps/dir/?api=1,Metro Manila NCR Quezon City National Kidney and Transplant Institute (NKTI),14.6473447,121.0473288
NCR,Metro Manila,Quezon City,Fe Del Mundo Medical Center,PRIVATE,rRT PCR,01/01/22 - 12/31/22,28,Click the compass to find out!,https://www.google.com/maps/dir/?api=1,Metro Manila NCR Quezon City Fe Del Mundo Medical Center,14.6204717,121.009294
NCR,Metro Manila,Mandaluyong City,"Health Delivery Systems, Inc.",PRIVATE,rRT PCR,01/01/22 - 12/31/22,29,Click the compass to find out!,https://www.google.com/maps/dir/?api=1,"Metro Manila NCR Mandaluyong City Health Delivery Systems, Inc.",14.5794443,121.0359174
NCR,Metro Manila,Quezon City,Veterans Memorial Medical Center,PUBLIC,rRT PCR,01/01/22 - 12/31/22,30,Click the compass to find out!,https://www.google.com/maps/dir/?api=1,Metro Manila NCR Quezon City Veterans Memorial Medical Center,14.6561184,121.0400556
NCR,Metro Manila,Quezon City,Philippine Heart Center,PUBLIC,Cartridge - Based PCR,01/01/22 - 12/31/22,31,Click the compass to find out!,https://www.google.com/maps/dir/?api=1,Metro Manila NCR Quezon City Philippine Heart Center,14.6440237,121.0481304
NCR,Metro Manila,Quezon City,De Los Santos Medical Center,PRIVATE,rRT PCR,01/01/22 - 12/31/22,32,Click the compass to find out!,https://www.google.com/maps/dir/?api=1,Metro Manila NCR Quezon City De Los Santos Medical Center,14.6200907,121.0177773
NCR,Metro Manila,Quezon City,Victoriano Luna Medical Center - (AFIRMS),PUBLIC,rRT PCR,01/01/22 - 12/31/22,33,Click the compass to find out!,https://www.google.com/maps/dir/?api=1,Metro Manila NCR Quezon City Victoriano Luna Medical Center - (AFIRMS),14.6356249,121.0526898
NCR,Metro Manila,Quezon City,Philippine Children's Medical Center,PUBLIC,rRT PCR,01/01/22 - 12/31/22,34,Click the compass to find out!,https://www.google.com/maps/dir/?api=1,Metro Manila NCR Quezon City Philippine Children's Medical Center,14.6476963,121.0411248
NCR,Metro Manila,Las Pinas City,University of Perpetual Help Dalta Medical Center Inc.,PRIVATE,rRT PCR,01/01/22 - 12/31/22,35,Click the compass to find out!,https://www.google.com/maps/dir/?api=1,Metro Manila NCR Las Pinas City University of Perpetual Help Dalta Medical Center Inc.,14.4324935,121.0135165
NCR,Metro Manila,Makati City,AL Molecular Diagnostic Laboratory,PRIVATE,rRT PCR,01/01/22 - 12/31/22,36,Click the compass to find out!,https://www.google.com/maps/dir/?api=1,Metro Manila NCR Makati City AL Molecular Diagnostic Laboratory,14.5536305,121.0033479
NCR,Metro Manila,City of Manila,Amosup Seamen's Hospital,PRIVATE,Cartridge - Based PCR,01/01/22 - 12/31/22,37,Click the compass to find out!,https://www.google.com/maps/dir/?api=1,Metro Manila NCR City of Manila Amosup Seamen's Hospital,14.587556,120.977748
NCR,Metro Manila,Valenzuela City,Valenzuela Hope Molecular Laboratory,PUBLIC,rRT PCR,01/01/22 - 12/31/22,38,Click the compass to find out!,https://www.google.com/maps/dir/?api=1,Metro Manila NCR Valenzuela City Valenzuela Hope Molecular Laboratory,14.7095642,120.9581481
NCR,Metro Manila,Pasig City,Pasig City Children's Hospital - Child's Hope,PUBLIC,rRT PCR,01/01/22 - 12/31/22,39,Click the compass to find out!,https://www.google.com/maps/dir/?api=1,Metro Manila NCR Pasig City Pasig City Children's Hospital - Child's Hope,14.5619564,121.074097
NCR,Metro Manila,Las Pinas City,Las Piñas General Hospital and Salellite Trauma Center,PUBLIC,rRT PCR,01/01/22 - 12/31/22,40,Click the compass to find out!,https://www.google.com/maps/dir/?api=1,Metro Manila NCR Las Pinas City Las Piñas General Hospital and Salellite Trauma Center,14.4716706,120.973806
NCR,Metro Manila,Las Pinas City,Las Piñas General Hospital and Salellite Trauma Center,PUBLIC,Cartridge - Based PCR,01/01/22 - 12/31/22,41,Click the compass to find out!,https://www.google.com/maps/dir/?api=1,Metro Manila NCR Las Pinas City Las Piñas General Hospital and Salellite Trauma Center,14.4716706,120.973806
NCR,Metro Manila,Makati City,Kaiser Medical Center Inc.,PRIVATE,rRT PCR,01/01/22 - 12/31/22,42,Click the compass to find out!,https://www.google.com/maps/dir/?api=1,Metro Manila NCR Makati City Kaiser Medical Center Inc.,14.557733,121.0135869
NCR,Metro Manila,Taguig City,Taguig City Molecular Laboratory,PUBLIC,rRT PCR,01/01/22 - 12/31/22,43,Click the compass to find out!,https://www.google.com/maps/dir/?api=1,Metro Manila NCR Taguig City Taguig City Molecular Laboratory,14.4879468,121.0627871
NCR,Metro Manila,City of Manila,First Aide Diagnostic Center,PRIVATE,rRT PCR,01/01/22 - 12/31/22,44,Click the compass to find out!,https://www.google.com/maps/dir/?api=1,Metro Manila NCR City of Manila First Aide Diagnostic Center,14.5862573,120.9732979
NCR,Metro Manila,Pasay City,The Lord's Grace Medical and Industrial Clinic,PRIVATE,rRT PCR,01/01/22 - 12/31/22,45,Click the compass to find out!,https://www.google.com/maps/dir/?api=1,Metro Manila NCR Pasay City The Lord's Grace Medical and Industrial Clinic,14.5326265,120.9900519
NCR,Metro Manila,City of Manila,Manila Doctors Hospital,PRIVATE,rRT PCR,01/01/22 - 12/31/22,46,Click the compass to find out!,https://www.google.com/maps/dir/?api=1,Metro Manila NCR City of Manila Manila Doctors Hospital,14.5819539,120.983005
NCR,Metro Manila,City of Manila,Sta. Ana Hospital,PUBLIC,rRT PCR,01/01/22 - 12/31/22,47,Click the compass to find out!,https://www.google.com/maps/dir/?api=1,Metro Manila NCR City of Manila Sta. Ana Hospital,14.583686,121.0163581
NCR,Metro Manila,City of Manila,Sta. Ana Hospital,PUBLIC,Cartridge - Based PCR,01/01/22 - 12/31/22,48,Click the compass to find out!,https://www.google.com/maps/dir/?api=1,Metro Manila NCR City of Manila Sta. Ana Hospital,14.583686,121.0163581
NCR,Metro Manila,Parañaque City,The Premier Molecular Diagnostics,PRIVATE,rRT PCR,01/01/22 - 12/31/22,49,Click the compass to find out!,https://www.google.com/maps/dir/?api=1,Metro Manila NCR Parañaque City The Premier Molecular Diagnostics,14.4886963,120.9929581
NCR,Metro Manila,Taguig City,Army General Hospital Molecular Laboratory,PUBLIC,rRT PCR,01/01/22 - 12/31/22,50,Click the compass to find out!,https://www.google.com/maps/dir/?api=1,Metro Manila NCR Taguig City Army General Hospital Molecular Laboratory,14.5309753,121.0479279
NCR,Metro Manila,Quezon City,University of the East Ramon Magsaysay Memorial Medical Center (UERM),PRIVATE,rRT PCR,01/01/22 - 12/31/22,51,Click the compass to find out!,https://www.google.com/maps/dir/?api=1,Metro Manila NCR Quezon City University of the East Ramon Magsaysay Memorial Medical Center (UERM),14.6175003,121.0410004
NCR,Metro Manila,Makati City,Health Metrics Inc.,PRIVATE,rRT PCR,01/01/22 - 12/31/22,52,Click the compass to find out!,https://www.google.com/maps/dir/?api=1,Metro Manila NCR Makati City Health Metrics Inc.,14.5644838,121.0118673
NCR,Metro Manila,Makati City,IOM- Manila Health Centre Laboratory,PRIVATE,Cartridge - Based PCR,01/01/22 - 12/31/22,53,Click the compass to find out!,https://www.google.com/maps/dir/?api=1,Metro Manila NCR Makati City IOM- Manila Health Centre Laboratory,14.5826317,120.9856048
NCR,Metro Manila,Quezon City,PNP General Hospital,PUBLIC,rRT PCR,01/01/22 - 12/31/22,54,Click the compass to find out!,https://www.google.com/maps/dir/?api=1,Metro Manila NCR Quezon City PNP General Hospital,14.6156163,121.0519252
NCR,Metro Manila,Las Pinas City,QR Medical Laboratories Inc. (VitaCare),PRIVATE,rRT PCR,01/01/22 - 12/31/22,55,Click the compass to find out!,https://www.google.com/maps/dir/?api=1,Metro Manila NCR Las Pinas City QR Medical Laboratories Inc. (VitaCare),14.444546,120.9938736
NCR,Metro Manila,Quezon City,Quezon City Molecular Diagnostics Laboratory,PUBLIC,rRT PCR,01/01/22 - 12/31/22,56,Click the compass to find out!,https://www.google.com/maps/dir/?api=1,Metro Manila NCR Quezon City Quezon City Molecular Diagnostics Laboratory,14.6469589,121.0609563
NCR,Metro Manila,Parañaque City,South Super Highway Molecular Diagnostic Laboratory,PRIVATE,rRT PCR,01/01/22 - 12/31/22,57,Click the compass to find out!,https://www.google.com/maps/dir/?api=1,Metro Manila NCR Parañaque City South Super Highway Molecular Diagnostic Laboratory,14.4742221,121.0449461
NCR,Metro Manila,Marikina City,Manila Healthtek Inc.,PRIVATE,rRT PCR,01/01/22 - 12/31/22,58,Click the compass to find out!,https://www.google.com/maps/dir/?api=1,Metro Manila NCR Marikina City Manila Healthtek Inc.,14.6322278,121.1014075
NCR,Metro Manila,Quezon City,Biopath Clinical Diagnostics Inc. (E. Rodriguez),PRIVATE,rRT PCR,01/01/22 - 12/31/22,59,Click the compass to find out!,https://www.google.com/maps/dir/?api=1,Metro Manila NCR Quezon City Biopath Clinical Diagnostics Inc. (E. Rodriguez),14.6207437,121.0221939
NCR,Metro Manila,Quezon City,Biopath Clinical Diagnostics Inc. (E. Rodriguez),PRIVATE,Cartridge - Based PCR,01/01/22 - 12/31/22,60,Click the compass to find out!,https://www.google.com/maps/dir/?api=1,Metro Manila NCR Quezon City Biopath Clinical Diagnostics Inc. (E. Rodriguez),14.6207437,121.0221939
NCR,Metro Manila,Pasig City,Rizal Medical Center,PUBLIC,Cartridge - Based PCR,01/01/22 - 12/31/22,61,Click the compass to find out!,https://www.google.com/maps/dir/?api=1,Metro Manila NCR Pasig City Rizal Medical Center,14.5638837,121.0660877
NCR,Metro Manila,Quezon City,Kairos Diagnostics Laboratory,PRIVATE,rRT PCR,01/01/22 - 12/31/22,62,Click the compass to find out!,https://www.google.com/maps/dir/?api=1,Metro Manila NCR Quezon City Kairos Diagnostics Laboratory,14.6364918,121.053704
NCR,Metro Manila,City of Manila,Philippine General Hospital (PGH),PUBLIC,Cartridge - Based PCR,01/01/22 - 12/31/22,63,Click the compass to find out!,https://www.google.com/maps/dir/?api=1,Metro Manila NCR City of Manila Philippine General Hospital (PGH),14.5777215,120.9856154
NCR,Metro Manila,City of Manila,Manila Diagnostic Center for OFW Inc.,PRIVATE,rRT PCR,01/01/22 - 12/31/22,64,Click the compass to find out!,https://www.google.com/maps/dir/?api=1,Metro Manila NCR City of Manila Manila Diagnostic Center for OFW Inc.,14.5801308,120.9815376
NCR,Metro Manila,Parañaque City,"Interpharma Solutions Philippines, Inc.",PRIVATE,rRT PCR,01/01/22 - 12/31/22,65,Click the compass to find out!,https://www.google.com/maps/dir/?api=1,"Metro Manila NCR Parañaque City Interpharma Solutions Philippines, Inc.",14.4989622,121.0381551
NCR,Metro Manila,City of Manila,El Roi Medical Clinic & Diagnostic Center Inc.,PRIVATE,rRT PCR,01/01/22 - 12/31/22,66,Click the compass to find out!,https://www.google.com/maps/dir/?api=1,Metro Manila NCR City of Manila El Roi Medical Clinic & Diagnostic Center Inc.,14.5699652,120.992551
NCR,Metro Manila,Marikina City,Amang Rodriguez Memorial Medical Center,PUBLIC,rRT PCR,01/01/22 - 12/31/22,67,Click the compass to find out!,https://www.google.com/maps/dir/?api=1,Metro Manila NCR Marikina City Amang Rodriguez Memorial Medical Center,14.6358837,121.0982344
NCR,Metro Manila,Marikina City,Amang Rodriguez Memorial Medical Center,PUBLIC,Cartridge - Based PCR,01/01/22 - 12/31/22,68,Click the compass to find out!,https://www.google.com/maps/dir/?api=1,Metro Manila NCR Marikina City Amang Rodriguez Memorial Medical Center,14.6358837,121.0982344
NCR,Metro Manila,Quezon City,Hero Laboratories,PRIVATE,rRT PCR,01/01/22 - 12/31/22,69,Click the compass to find out!,https://www.google.com/maps/dir/?api=1,Metro Manila NCR Quezon City Hero Laboratories,14.6239202,121.0503269
NCR,Metro Manila,Taguig City,Lifecore Bio Integrative Inc.,PRIVATE,rRT PCR,01/01/22 - 12/31/22,70,Click the compass to find out!,https://www.google.com/maps/dir/?api=1,Metro Manila NCR Taguig City Lifecore Bio Integrative Inc.,14.55241,121.0517641
NCR,Metro Manila,Muntinlupa City,Ospital ng Muntinlupa,PUBLIC,rRT PCR,01/01/22 - 12/31/22,71,Click the compass to find out!,https://www.google.com/maps/dir/?api=1,Metro Manila NCR Muntinlupa City Ospital ng Muntinlupa,14.4144967,121.0447001
NCR,Metro Manila,City of Manila,"Supercare Medical Services, Inc.",PRIVATE,rRT PCR,01/01/22 - 12/31/22,72,Click the compass to find out!,https://www.google.com/maps/dir/?api=1,"Metro Manila NCR City of Manila Supercare Medical Services, Inc.",14.5796999,120.9822994
NCR,Metro Manila,Pasay City,JT Cenica Medical Health System,PRIVATE,rRT PCR,01/01/22 - 12/31/22,73,Click the compass to find out!,https://www.google.com/maps/dir/?api=1,Metro Manila NCR Pasay City JT Cenica Medical Health System,14.5511118,121.0661155
NCR,Metro Manila,Quezon City,New World Diagnostics Inc. Premium Medical Branch,PRIVATE,rRT PCR,01/01/22 - 12/31/22,74,Click the compass to find out!,https://www.google.com/maps/dir/?api=1,Metro Manila NCR Quezon City New World Diagnostics Inc. Premium Medical Branch,14.6347995,120.9970651
NCR,Metro Manila,Las Piñas City,A Star Laboratories,PRIVATE,rRT PCR,01/01/22 - 12/31/22,75,Click the compass to find out!,https://www.google.com/maps/dir/?api=1,Metro Manila NCR Las Piñas City A Star Laboratories,14.4557648,120.9943332
NCR,Metro Manila,Quezon City,Philippine National Police Crime Laboratory (PNP Crime Lab.),PUBLIC,rRT PCR,01/01/22 - 12/31/22,76,Click the compass to find out!,https://www.google.com/maps/dir/?api=1,Metro Manila NCR Quezon City Philippine National Police Crime Laboratory (PNP Crime Lab.),14.6091277,121.053292
NCR,Metro Manila,San Juan City,Cardinal Santos Medical Center,PRIVATE,rRT PCR,01/01/22 - 12/31/22,77,Click the compass to find out!,https://www.google.com/maps/dir/?api=1,Metro Manila NCR San Juan City Cardinal Santos Medical Center,14.5977862,121.0455347
NCR,Metro Manila,Quezon City,University of the Philippines - PGH-MRL,PUBLIC,rRT PCR,01/01/22 - 12/31/22,78,Click the compass to find out!,https://www.google.com/maps/dir/?api=1,Metro Manila NCR Quezon City University of the Philippines - PGH-MRL,14.6549715,121.0651503
NCR,Metro Manila,Pasay City,Philippine Airport Diagnostic Laboratory,PRIVATE,rRT PCR,01/01/22 - 12/31/22,79,Click the compass to find out!,https://www.google.com/maps/dir/?api=1,Metro Manila NCR Pasay City Philippine Airport Diagnostic Laboratory,14.5177917,121.0003738
NCR,Metro Manila,City of Manila,"Ermita Molecular Diagnostic Laboratory, Inc.",PRIVATE,rRT PCR,01/01/22 - 12/31/22,80,Click the compass to find out!,https://www.google.com/maps/dir/?api=1,"Metro Manila NCR City of Manila Ermita Molecular Diagnostic Laboratory, Inc.",14.5735549,120.9922258
NCR,Metro Manila,City of Manila,Intramuros Molecular Laboratory Inc.,PRIVATE,rRT PCR,01/01/22 - 12/31/22,81,Click the compass to find out!,https://www.google.com/maps/dir/?api=1,Metro Manila NCR City of Manila Intramuros Molecular Laboratory Inc.,14.5892801,120.9758456
NCR,Metro Manila,City of Manila,"Olayn Medical Laboratory, Inc",PRIVATE,rRT PCR,01/01/22 - 12/31/22,82,Click the compass to find out!,https://www.google.com/maps/dir/?api=1,"Metro Manila NCR City of Manila Olayn Medical Laboratory, Inc",14.5656848,120.9939123
NCR,Metro Manila,Caloocan City,Caloocan City North Medical Center,PUBLIC,rRT PCR,01/01/22 - 12/31/22,83,Click the compass to find out!,https://www.google.com/maps/dir/?api=1,Metro Manila NCR Caloocan City Caloocan City North Medical Center,14.7563848,121.0502375
NCR,Metro Manila,Makati City,PCR MED Molecular Laboratory,PRIVATE,rRT PCR,01/01/22 - 12/31/22,84,Click the compass to find out!,https://www.google.com/maps/dir/?api=1,Metro Manila NCR Makati City PCR MED Molecular Laboratory,14.5537624,121.0028585
NCR,Metro Manila,City of Manila,Jose R. Reyes Memorial Medical Center,PUBLIC,Cartridge - Based PCR,01/01/22 - 12/31/22,85,Click the compass to find out!,https://www.google.com/maps/dir/?api=1,Metro Manila NCR City of Manila Jose R. Reyes Memorial Medical Center,14.6143273,120.9822566
NCR,Metro Manila,Mandaluyong City,Healthway Medical,PRIVATE,rRT PCR,01/01/22 - 12/31/22,86,Click the compass to find out!,https://www.google.com/maps/dir/?api=1,Metro Manila NCR Mandaluyong City Healthway Medical,14.5749487,121.0494282
NCR,Metro Manila,Quezon City,Victoriano Luna Medical Center - (AFIRMS),PUBLIC,Cartridge - Based PCR,01/01/22 - 12/31/22,87,Click the compass to find out!,https://www.google.com/maps/dir/?api=1,Metro Manila NCR Quezon City Victoriano Luna Medical Center - (AFIRMS),14.6356249,121.0526898
NCR,Metro Manila,Quezon City,"F.Y. Manalo Medical Foundation, Inc",PRIVATE,rRT PCR,01/01/22 - 12/31/22,88,Click the compass to find out!,https://www.google.com/maps/dir/?api=1,"Metro Manila NCR Quezon City F.Y. Manalo Medical Foundation, Inc",14.7162064,121.0565942
NCR,Metro Manila,Parañaque City,Ospital ng Parañaque District II,PUBLIC,rRT PCR,01/01/22 - 12/31/22,89,Click the compass to find out!,https://www.google.com/maps/dir/?api=1,Metro Manila NCR Parañaque City Ospital ng Parañaque District II,14.4866937,121.0442112
NCR,Metro Manila,Pasig City,The Medical City - Ortigas,PRIVATE,Cartridge - Based PCR,01/01/22 - 12/31/22,90,Click the compass to find out!,https://www.google.com/maps/dir/?api=1,Metro Manila NCR Pasig City The Medical City - Ortigas,14.5899034,121.0693605
NCR,Metro Manila,Pasay City,Marilao Medical and Diagnostic Clinic,PRIVATE,rRT PCR,01/01/22 - 12/31/22,91,Click the compass to find out!,https://www.google.com/maps/dir/?api=1,Metro Manila NCR Pasay City Marilao Medical and Diagnostic Clinic,14.5462123,120.9937166
NCR,Metro Manila,Makati City,Al Molecular Diagnostic Laboratory,PRIVATE,Cartridge - Based PCR,01/01/22 - 12/31/22,92,Click the compass to find out!,https://www.google.com/maps/dir/?api=1,Metro Manila NCR Makati City Al Molecular Diagnostic Laboratory,14.5536305,121.0033479
NCR,Metro Manila,City of Manila,Chinese General Hospital,PRIVATE,Cartridge - Based PCR,01/08/22 - 12/31/22,93,Click the compass to find out!,https://www.google.com/maps/dir/?api=1,Metro Manila NCR City of Manila Chinese General Hospital,14.6255846,120.9886466
NCR,Metro Manila,City of Manila,"Olayn Medical Laboratory, Inc",PRIVATE,Cartridge - Based PCR,01/01/22 - 12/31/22,94,Click the compass to find out!,https://www.google.com/maps/dir/?api=1,"Metro Manila NCR City of Manila Olayn Medical Laboratory, Inc",14.5656848,120.9939123
NCR,Metro Manila,City of Manila,Philippine Medical Diagnostics and Laboratory Center Corporation (PhilMed),PRIVATE,rRT PCR,01/01/22 - 12/31/22,95,Click the compass to find out!,https://www.google.com/maps/dir/?api=1,Metro Manila NCR City of Manila Philippine Medical Diagnostics and Laboratory Center Corporation (PhilMed),14.572062,120.9910265
NCR,Metro Manila,City of Manila,PSG Station Hospital Molecular Laboratory,PUBLIC,rRT PCR,01/01/22 - 12/31/22,96,Click the compass to find out!,https://www.google.com/maps/dir/?api=1,Metro Manila NCR City of Manila PSG Station Hospital Molecular Laboratory,14.5936868,121.0006733
NCR,Metro Manila,Quezon City,Ateneo Molecular Pathology Laboratory,PRIVATE,rRT PCR,01/01/22 - 12/31/22,97,Click the compass to find out!,https://www.google.com/maps/dir/?api=1,Metro Manila NCR Quezon City Ateneo Molecular Pathology Laboratory,14.6396431,121.0757201
NCR,Metro Manila,Pasig City,New World Diagnostics Inc. Premium Medical Branch,PRIVATE,Cartridge - Based PCR,01/01/22 - 12/31/22,98,Click the compass to find out!,https://www.google.com/maps/dir/?api=1,Metro Manila NCR Pasig City New World Diagnostics Inc. Premium Medical Branch,14.5767048,121.0624101
NCR,Metro Manila,Quezon City,Quirino Memorial Medical Center,PUBLIC,rRT PCR,01/01/22 - 12/31/22,99,Click the compass to find out!,https://www.google.com/maps/dir/?api=1,Metro Manila NCR Quezon City Quirino Memorial Medical Center,14.6222558,121.0728482
NCR,Metro Manila,Pasay City,Heartland Medical and Diagnostic Center,PRIVATE,rRT PCR,01/01/22 - 12/31/22,100,Click the compass to find out!,https://www.google.com/maps/dir/?api=1,Metro Manila NCR Pasay City Heartland Medical and Diagnostic Center,14.5322975,120.9899002
NCR,Metro Manila,City of Manila,Truhealth Diagnostics Center,PRIVATE,rRT PCR,01/01/22 - 12/31/22,101,Click the compass to find out!,https://www.google.com/maps/dir/?api=1,Metro Manila NCR City of Manila Truhealth Diagnostics Center,14.5710321,120.9908137
NCR,Metro Manila,Quezon City,Metro North Medical Center and Hospital Inc.,PRIVATE,rRT PCR,01/01/22 - 12/31/22,102,Click the compass to find out!,https://www.google.com/maps/dir/?api=1,Metro Manila NCR Quezon City Metro North Medical Center and Hospital Inc.,14.668842,121.033579
NCR,Metro Manila,San Juan City,Cardinal Santos Medical Center,PRIVATE,Cartridge - Based PCR,01/01/22 - 12/31/22,103,Click the compass to find out!,https://www.google.com/maps/dir/?api=1,Metro Manila NCR San Juan City Cardinal Santos Medical Center,14.5977862,121.0455347
NCR,Metro Manila,Valenzuela City,Allied Care Expert - Valenzuela,PRIVATE,rRT PCR,01/01/22 - 12/31/22,104,Click the compass to find out!,https://www.google.com/maps/dir/?api=1,Metro Manila NCR Valenzuela City Allied Care Expert - Valenzuela,14.715363,120.9576404
NCR,Metro Manila,Marikina City,Marikina Valley Medical Center,PRIVATE,rRT PCR,01/01/22 - 12/31/22,105,Click the compass to find out!,https://www.google.com/maps/dir/?api=1,Metro Manila NCR Marikina City Marikina Valley Medical Center,14.6347295,121.1039907
NCR,Metro Manila,Taguig City,"Medical Center of Taguig City, Inc.",PRIVATE,rRT PCR,01/01/22 - 12/31/22,106,Click the compass to find out!,https://www.google.com/maps/dir/?api=1,"Metro Manila NCR Taguig City Medical Center of Taguig City, Inc.",14.5176184,121.0508645
NCR,Metro Manila,Parañaque City,"Medical Center Paranaque, Inc.",PRIVATE,rRT PCR,01/01/22 - 12/31/22,107,Click the compass to find out!,https://www.google.com/maps/dir/?api=1,"Metro Manila NCR Parañaque City Medical Center Paranaque, Inc.",14.4588301,121.0307966
NCR,Metro Manila,Quezon City,Best Diagnostic Corporation,PRIVATE,rRT PCR,01/01/22 - 12/31/22,108,Click the compass to find out!,https://www.google.com/maps/dir/?api=1,Metro Manila NCR Quezon City Best Diagnostic Corporation,14.6446617,121.0520598
NCR,Metro Manila,Quezon City,Hi-Precision Diagnostic Center,PRIVATE,Cartridge - Based PCR,01/01/22 - 12/31/22,109,Click the compass to find out!,https://www.google.com/maps/dir/?api=1,Metro Manila NCR Quezon City Hi-Precision Diagnostic Center,14.6385268,121.0027574
NCR,Metro Manila,Quezon City,Kairos Diagnostics Laboratory,PRIVATE,Cartridge - Based PCR,01/01/22 - 12/31/22,110,Click the compass to find out!,https://www.google.com/maps/dir/?api=1,Metro Manila NCR Quezon City Kairos Diagnostics Laboratory,14.6364918,121.053704
NCR,Metro Manila,Pasay City,Philippine Airport Diagnostic Laboratory,PRIVATE,Cartridge - Based PCR,01/01/22 - 12/31/22,111,Click the compass to find out!,https://www.google.com/maps/dir/?api=1,Metro Manila NCR Pasay City Philippine Airport Diagnostic Laboratory,14.5177917,121.0003738
NCR,Metro Manila,Quezon City,National Childrens Hospital,PUBLIC,Cartridge - Based PCR,01/01/22 - 12/31/22,112,Click the compass to find out!,https://www.google.com/maps/dir/?api=1,Metro Manila NCR Quezon City National Childrens Hospital,14.6204405,121.0208118
NCR,Metro Manila,City of Manila,El Roi Medical Clinic & Diagnostic Center Inc.,PRIVATE,Cartridge - Based PCR,01/01/22 - 12/31/22,113,Click the compass to find out!,https://www.google.com/maps/dir/?api=1,Metro Manila NCR City of Manila El Roi Medical Clinic & Diagnostic Center Inc.,14.5699652,120.992551
NCR,Metro Manila,Quezon City,Be Safe MD. Inc,PRIVATE,rRT PCR,01/01/22 - 12/31/22,114,Click the compass to find out!,https://www.google.com/maps/dir/?api=1,Metro Manila NCR Quezon City Be Safe MD. Inc,14.609,121.07676
NCR,Metro Manila,City of Manila,"Medical Center Manila, Inc",PRIVATE,Cartridge - Based PCR,01/01/22 - 12/31/22,115,Click the compass to find out!,https://www.google.com/maps/dir/?api=1,"Metro Manila NCR City of Manila Medical Center Manila, Inc",14.5824903,120.9851208
NCR,Metro Manila,City of Manila,Dr. Jose Fabella Memorial Hospital,PUBLIC,Cartridge - Based PCR,01/01/22 - 12/31/22,116,Click the compass to find out!,https://www.google.com/maps/dir/?api=1,Metro Manila NCR City of Manila Dr. Jose Fabella Memorial Hospital,14.6062156,120.9842759
NCR,Metro Manila,City of Manila,Dr. Jose Fabella Memorial Hospital,PUBLIC,rRT PCR,01/01/22 - 12/31/22,117,Click the compass to find out!,https://www.google.com/maps/dir/?api=1,Metro Manila NCR City of Manila Dr. Jose Fabella Memorial Hospital,14.6062156,120.9842759
NCR,Metro Manila,Mandaluyong City,Detoxicare Molecular Diagnostics Laboratory,PRIVATE,rRT PCR,01/01/22 - 12/31/22,118,Click the compass to find out!,https://www.google.com/maps/dir/?api=1,Metro Manila NCR Mandaluyong City Detoxicare Molecular Diagnostics Laboratory,14.5913357,121.0328688
NCR,Metro Manila,Mandaluyong City,Detoxicare Molecular Diagnostics Laboratory,PRIVATE,Cartridge - Based PCR,01/01/22 - 12/31/22,119,Click the compass to find out!,https://www.google.com/maps/dir/?api=1,Metro Manila NCR Mandaluyong City Detoxicare Molecular Diagnostics Laboratory,14.5913357,121.0328688
NCR,Metro Manila,Quezon City,East Avenue Medical Center,PUBLIC,rRT PCR,01/01/22 - 12/31/22,120,Click the compass to find out!,https://www.google.com/maps/dir/?api=1,Metro Manila NCR Quezon City East Avenue Medical Center,14.6421672,121.0478702
NCR,Metro Manila,Parañaque City,"Medical Center of Paranaque, Inc.",PRIVATE,Cartridge - Based PCR,01/01/22 - 12/31/22,121,Click the compass to find out!,https://www.google.com/maps/dir/?api=1,"Metro Manila NCR Parañaque City Medical Center of Paranaque, Inc.",14.4582914,121.033451
NCR,Metro Manila,City of Manila,Bureau of Quarantine,PUBLIC,Cartridge - Based PCR,01/01/22 - 12/31/22,122,Click the compass to find out!,https://www.google.com/maps/dir/?api=1,Metro Manila NCR City of Manila Bureau of Quarantine,14.5839832,120.972596
NCR,Metro Manila,City of Manila,Allied Medical and Molecular Laboratory Corp.,PRIVATE,rRT PCR,01/01/22 - 12/31/22,123,Click the compass to find out!,https://www.google.com/maps/dir/?api=1,Metro Manila NCR City of Manila Allied Medical and Molecular Laboratory Corp.,14.5782958,120.9826062
NCR,Metro Manila,City of Manila,South Super Highway Biomedical Laboratories Inc.,PRIVATE,rRT PCR,12/31/22,124,Click the compass to find out!,https://www.google.com/maps/dir/?api=1,Metro Manila NCR City of Manila South Super Highway Biomedical Laboratories Inc.,14.497391,121.0332326
NCR,Metro Manila,City of Manila,AC Molecular Diagnostic Laboratory,PRIVATE,rRT PCR,02/16/22 - 12/31/22,125,Click the compass to find out!,https://www.google.com/maps/dir/?api=1,Metro Manila NCR City of Manila AC Molecular Diagnostic Laboratory,14.5726472,120.9936856
NCR,Metro Manila,Parañaque City,Kairos Diagnostics Laboratory,PRIVATE,rRT PCR,01/01/22 - 12/31/22,126,Click the compass to find out!,https://www.google.com/maps/dir/?api=1,Metro Manila NCR Parañaque City Kairos Diagnostics Laboratory,14.4870655,120.9938932
NCR,Metro Manila,Quezon City,Be Safe MD. Inc,PRIVATE,Cartridge - Based PCR,12/31/22,127,Click the compass to find out!,https://www.google.com/maps/dir/?api=1,Metro Manila NCR Quezon City Be Safe MD. Inc,14.609,121.07676
Region 1,La Union,San Fernando City,Ilocos Training and Regional Medical Center,PUBLIC,rRT PCR,01/01/22 - 12/31/22,128,Click the compass to find out!,https://www.google.com/maps/dir/?api=1,La Union Region 1 San Fernando City Ilocos Training and Regional Medical Center,16.5912317,120.3178203
Region 1,La Union,San Fernando City,Ilocos Training and Regional Medical Center,PUBLIC,Cartridge - Based PCR,01/01/22 - 12/31/22,129,Click the compass to find out!,https://www.google.com/maps/dir/?api=1,La Union Region 1 San Fernando City Ilocos Training and Regional Medical Center,16.5912317,120.3178203
Region 1,Pangasinan,Dagupan City,Region 1 Medical Center,PUBLIC,Cartridge - Based PCR,01/01/22 - 12/31/22,130,Click the compass to find out!,https://www.google.com/maps/dir/?api=1,Pangasinan Region 1 Dagupan City Region 1 Medical Center,16.0485481,120.3415708
Region 1,Pangasinan,Dagupan City,"Dagupan Doctors Villaflor Memorial Hospital, Inc.",PRIVATE,rRT PCR,01/01/22 - 12/31/22,131,Click the compass to find out!,https://www.google.com/maps/dir/?api=1,"Pangasinan Region 1 Dagupan City Dagupan Doctors Villaflor Memorial Hospital, Inc.",16.0375508,120.3468154
Region 1,Ilocos Norte,Batac City,Mariano Marcos Memorial Hospital Medical Center,PUBLIC,rRT PCR,01/01/22 - 12/31/22,132,Click the compass to find out!,https://www.google.com/maps/dir/?api=1,Ilocos Norte Region 1 Batac City Mariano Marcos Memorial Hospital Medical Center,18.0604061,120.5591422
Region 1,Ilocos Norte,Batac City,Mariano Marcos Memorial Hospital Medical Center,PUBLIC,Cartridge - Based PCR,01/01/22 - 12/31/22,133,Click the compass to find out!,https://www.google.com/maps/dir/?api=1,Ilocos Norte Region 1 Batac City Mariano Marcos Memorial Hospital Medical Center,18.0604061,120.5591422
Region 1,Pangasinan,San Carlos City,Pangasinan Molecular Diagnostic Laboratory,PUBLIC,rRT PCR,01/01/22 - 12/31/22,134,Click the compass to find out!,https://www.google.com/maps/dir/?api=1,Pangasinan Region 1 San Carlos City Pangasinan Molecular Diagnostic Laboratory,15.8989343,120.3204873
Region 1,Pangasinan,Dagupan City,Region 1 Medical Center,PUBLIC,rRT PCR,01/01/22 - 12/31/22,135,Click the compass to find out!,https://www.google.com/maps/dir/?api=1,Pangasinan Region 1 Dagupan City Region 1 Medical Center,16.0485481,120.3415708
Region 1,Pangasinan,Municipality of Villasis,Metro Pangasinan Molecular Laboratory,PRIVATE,rRT PCR,01/01/22 - 12/31/22,136,Click the compass to find out!,https://www.google.com/maps/dir/?api=1,Pangasinan Region 1 Municipality of Villasis Metro Pangasinan Molecular Laboratory,15.9152871,120.5829386
Region 1,Pangasinan,Municipality of Tayug,Tayug Family Hospital,PRIVATE,rRT PCR,01/01/22 - 12/31/22,137,Click the compass to find out!,https://www.google.com/maps/dir/?api=1,Pangasinan Region 1 Municipality of Tayug Tayug Family Hospital,15.9941813,120.723041
Region 1,Pangasinan,Dagupan City,Marilao Medical and Diagnostic Clinic,PRIVATE,rRT PCR,01/01/22 - 12/31/22,138,Click the compass to find out!,https://www.google.com/maps/dir/?api=1,Pangasinan Region 1 Dagupan City Marilao Medical and Diagnostic Clinic,16.0432998,120.3333124
Region 1,La Union,San Fernando City,Lorma Medical Center,PRIVATE,rRT PCR,01/10/22 - 12/31/22,139,Click the compass to find out!,https://www.google.com/maps/dir/?api=1,La Union Region 1 San Fernando City Lorma Medical Center,16.6315149,120.3178716
Region 1,La Union,San Fernando City,Lorma Medical Center,PRIVATE,Cartridge - Based PCR,03/07/22 - 12/31/22,140,Click the compass to find out!,https://www.google.com/maps/dir/?api=1,La Union Region 1 San Fernando City Lorma Medical Center,16.6315149,120.3178716
Region 1,Ilocos Sur,Vigan City,Ilocos Sur Provincial Hospital Gabriela Silang,PUBLIC,rRT PCR,12/31/22,141,Click the compass to find out!,https://www.google.com/maps/dir/?api=1,Ilocos Sur Region 1 Vigan City Ilocos Sur Provincial Hospital Gabriela Silang,17.5535027,120.3797408
Region 2,Cagayan,Tuguegarao City,Cagayan Valley CHD TB Reference Laboratory ( GeneXpert),PUBLIC,Cartridge - Based PCR,01/01/22 - 12/31/22,142,Click the compass to find out!,https://www.google.com/maps/dir/?api=1,Cagayan Region 2 Tuguegarao City Cagayan Valley CHD TB Reference Laboratory ( GeneXpert),17.6730233,121.7535292
Region 2,Cagayan,Tuguegarao City,Cagayan Valley Medical Center Molecular Laboratory,PUBLIC,rRT PCR,01/01/22 - 12/31/22,143,Click the compass to find out!,https://www.google.com/maps/dir/?api=1,Cagayan Region 2 Tuguegarao City Cagayan Valley Medical Center Molecular Laboratory,17.6558461,121.7476966
Region 2,Isabela,Santiago City,Southern Isabela Medical Center Molecular Diagnostic & Research Laboratory (SIMC - MDRL),PUBLIC,rRT PCR,01/01/22 - 12/31/22,144,Click the compass to find out!,https://www.google.com/maps/dir/?api=1,Isabela Region 2 Santiago City Southern Isabela Medical Center Molecular Diagnostic & Research Laboratory (SIMC - MDRL),16.680089,121.546748
Region 2,Isabela,Ilagan City,San Antonio City of Ilagan Hospital,PUBLIC,rRT PCR,01/01/22 - 12/31/22,145,Click the compass to find out!,https://www.google.com/maps/dir/?api=1,Isabela Region 2 Ilagan City San Antonio City of Ilagan Hospital,17.1025249,121.866467
Region 2,Isabela,Ilagan City,Philippine Red Cross Isabela Molecular Laboratory,PRIVATE,rRT PCR,01/01/22 - 12/31/22,146,Click the compass to find out!,https://www.google.com/maps/dir/?api=1,Isabela Region 2 Ilagan City Philippine Red Cross Isabela Molecular Laboratory,17.1308871,121.8707991
Region 3,Pampanga,San Fernando City,Jose B. Lingad Memorial General Hospital,PUBLIC,rRT PCR,01/01/22 - 12/31/22,147,Click the compass to find out!,https://www.google.com/maps/dir/?api=1,Pampanga Region 3 San Fernando City Jose B. Lingad Memorial General Hospital,15.0389739,120.6808826
Region 3,Bataan,Balanga City,Bataan General Hospital and Medical Center,PUBLIC,rRT PCR,01/01/22 - 12/31/22,148,Click the compass to find out!,https://www.google.com/maps/dir/?api=1,Bataan Region 3 Balanga City Bataan General Hospital and Medical Center,14.6785305,120.5304283
Region 3,Bataan,Balanga City,Bataan General Hospital and Medical Center,PUBLIC,Cartridge - Based PCR,01/01/22 - 12/31/22,149,Click the compass to find out!,https://www.google.com/maps/dir/?api=1,Bataan Region 3 Balanga City Bataan General Hospital and Medical Center,14.6785305,120.5304283
Region 3,Pampanga,San Fernando City,Green City Medical Center,PRIVATE,rRT PCR,01/01/22 - 12/31/22,150,Click the compass to find out!,https://www.google.com/maps/dir/?api=1,Pampanga Region 3 San Fernando City Green City Medical Center,15.0440576,120.6857761
Region 3,Zambales,Municipality Subic,Philippine Red Cross - Logistics and Training Center,PRIVATE,rRT PCR,01/01/22 - 12/31/22,151,Click the compass to find out!,https://www.google.com/maps/dir/?api=1,Zambales Region 3 Municipality Subic Philippine Red Cross - Logistics and Training Center,14.8967937,120.2366297
Region 3,Pampanga,Mabalacat City,Philippine Red Cross - Clark Molecular Laboratory,PRIVATE,rRT PCR,01/01/22 - 12/31/22,152,Click the compass to find out!,https://www.google.com/maps/dir/?api=1,Pampanga Region 3 Mabalacat City Philippine Red Cross - Clark Molecular Laboratory,15.1837112,120.5374049
Region 3,Bulacan,San Jose Del Monte City,Qualimed Hospital - San Jose Del Monte,PRIVATE,rRT PCR,01/01/22 - 12/31/22,153,Click the compass to find out!,https://www.google.com/maps/dir/?api=1,Bulacan Region 3 San Jose Del Monte City Qualimed Hospital - San Jose Del Monte,14.7883528,121.07705
Region 3,Bulacan,Malolos City,Bulacan Medical Center,PUBLIC,rRT PCR,01/01/22 - 12/31/22,154,Click the compass to find out!,https://www.google.com/maps/dir/?api=1,Bulacan Region 3 Malolos City Bulacan Medical Center,14.8586047,120.8169218
Region 3,Bulacan,Malolos City,Bulacan Medical Center (GeneXpert),PUBLIC,Cartridge - Based PCR,01/01/22 - 12/31/22,155,Click the compass to find out!,https://www.google.com/maps/dir/?api=1,Bulacan Region 3 Malolos City Bulacan Medical Center (GeneXpert),14.8586047,120.8169218
Region 3,Tarlac,Tarlac City,Central Luzon Doctor's Hospital Inc.,PRIVATE,Cartridge - Based PCR,01/01/22 - 12/31/22,156,Click the compass to find out!,https://www.google.com/maps/dir/?api=1,Tarlac Region 3 Tarlac City Central Luzon Doctor's Hospital Inc.,15.4781792,120.5869477
Region 3,Bulacan,Municipality of Bucaue,Marilao Medical and Diagnostic Clinic,PRIVATE,rRT PCR,01/01/22 - 12/31/22,157,Click the compass to find out!,https://www.google.com/maps/dir/?api=1,Bulacan Region 3 Municipality of Bucaue Marilao Medical and Diagnostic Clinic,14.7966522,120.9354053
Region 3,Bulacan,Malolos City,Graman Medical & Maternity Hospital Inc Molecular Laboratory,PRIVATE,rRT PCR,01/01/22 - 12/31/22,158,Click the compass to find out!,https://www.google.com/maps/dir/?api=1,Bulacan Region 3 Malolos City Graman Medical & Maternity Hospital Inc Molecular Laboratory,14.8463374,120.8345283
Region 3,Tarlac,Tarlac City,Tarlac Provincial Hospital,PUBLIC,rRT PCR,01/01/22 - 12/31/22,159,Click the compass to find out!,https://www.google.com/maps/dir/?api=1,Tarlac Region 3 Tarlac City Tarlac Provincial Hospital,15.4750177,120.5865725
Region 3,Tarlac,Tarlac City,Tarlac Provincial Hospital - Molecular Pathology Laboratory,PUBLIC,Cartridge - Based PCR,01/01/22 - 12/31/22,160,Click the compass to find out!,https://www.google.com/maps/dir/?api=1,Tarlac Region 3 Tarlac City Tarlac Provincial Hospital - Molecular Pathology Laboratory,15.4739404,120.5865745
Region 3,Pampanga,San Fernando City,Our Lady of Mt. Carmel Medical Center Molecular Laboratory,PRIVATE,rRT PCR,01/01/22 - 12/31/22,161,Click the compass to find out!,https://www.google.com/maps/dir/?api=1,Pampanga Region 3 San Fernando City Our Lady of Mt. Carmel Medical Center Molecular Laboratory,15.0960589,120.6243491
Region 3,Zambales,Municipality of Iba,President Ramon Magsaysay Memorial Hospital,PUBLIC,Cartridge - Based PCR,01/01/22 - 12/31/22,162,Click the compass to find out!,https://www.google.com/maps/dir/?api=1,Zambales Region 3 Municipality of Iba President Ramon Magsaysay Memorial Hospital,15.3159914,119.9915712
Region 3,Pampanga,San Fernando City,Jose B. Lingad Memorial Hospital,PUBLIC,Cartridge - Based PCR,01/01/22 - 12/31/22,163,Click the compass to find out!,https://www.google.com/maps/dir/?api=1,Pampanga Region 3 San Fernando City Jose B. Lingad Memorial Hospital,15.034531,120.6846579
Region 3,Pampanga,Mabalacat City,The Medical City Clark Inc.,PRIVATE,rRT PCR,01/01/22 - 12/31/22,164,Click the compass to find out!,https://www.google.com/maps/dir/?api=1,Pampanga Region 3 Mabalacat City The Medical City Clark Inc.,15.1783832,120.5715116
Region 3,Bataan,Municipality of Mariveles,Mariveles District Hospital,PUBLIC,rRT PCR,01/01/22 - 12/31/22,165,Click the compass to find out!,https://www.google.com/maps/dir/?api=1,Bataan Region 3 Municipality of Mariveles Mariveles District Hospital,14.4381322,120.4984217
Region 3,Bulacan,Municipality of Sta. Maria,Multi-Lifecare Foundation Molecular Laboratory,PRIVATE,rRT PCR,01/01/22 - 12/31/22,166,Click the compass to find out!,https://www.google.com/maps/dir/?api=1,Bulacan Region 3 Municipality of Sta. Maria Multi-Lifecare Foundation Molecular Laboratory,14.847608,120.9808582
Region 3,Bataan,Municipality of Mariveles,Mariveles District Hospital,PUBLIC,Cartridge - Based PCR,01/01/22 - 12/31/22,167,Click the compass to find out!,https://www.google.com/maps/dir/?api=1,Bataan Region 3 Municipality of Mariveles Mariveles District Hospital,14.4381322,120.4984217
Region 3,Nueva Ecija,Cabanatuan City,Dr. Paulino J. Garcia Memorial Research and Medical Center,PUBLIC,rRT PCR,01/01/22 - 12/31/22,168,Click the compass to find out!,https://www.google.com/maps/dir/?api=1,Nueva Ecija Region 3 Cabanatuan City Dr. Paulino J. Garcia Memorial Research and Medical Center,15.489271,120.9727529
Region 3,Bulacan,San Jose Del Monte City,Skyline Hospital and Medical Center,PRIVATE,Cartridge - Based PCR,01/01/22 - 12/31/22,169,Click the compass to find out!,https://www.google.com/maps/dir/?api=1,Bulacan Region 3 San Jose Del Monte City Skyline Hospital and Medical Center,14.7981886,121.0704776
Region 3,Zambales,Olongapo City,Olongapo City Molecular Diagnostic Laboratory,PUBLIC,rRT PCR,01/01/22 - 12/31/22,170,Click the compass to find out!,https://www.google.com/maps/dir/?api=1,Zambales Region 3 Olongapo City Olongapo City Molecular Diagnostic Laboratory,14.8386303,120.2842023
Region 3,Pampanga,Municipality of Guagua,Pampanga Medical Specialist Hospital,PRIVATE,Cartridge - Based PCR,01/01/22 - 12/31/22,171,Click the compass to find out!,https://www.google.com/maps/dir/?api=1,Pampanga Region 3 Municipality of Guagua Pampanga Medical Specialist Hospital,14.9728054,120.6063419
Region 3,Pampanga,San Fernando City,Mother Teresa of Calcutta Medical Center,PRIVATE,rRT PCR,01/07/22 - 12/31/22,172,Click the compass to find out!,https://www.google.com/maps/dir/?api=1,Pampanga Region 3 San Fernando City Mother Teresa of Calcutta Medical Center,15.0657412,120.6537981
Region 3,Pampanga,San Fernando City,Mother Teresa of Calcutta Medical Center,PRIVATE,Cartridge - Based PCR,01/07/22 - 12/31/22,173,Click the compass to find out!,https://www.google.com/maps/dir/?api=1,Pampanga Region 3 San Fernando City Mother Teresa of Calcutta Medical Center,15.0657412,120.6537981
Region 3,Pampanga,Municipality of Guagua,Pampanga Molecular Laboratory,PRIVATE,rRT PCR,12/31/22,174,Click the compass to find out!,https://www.google.com/maps/dir/?api=1,Pampanga Region 3 Municipality of Guagua Pampanga Molecular Laboratory,14.9661601,120.6332117
Region 3,Pampanga,Municipality of Apalit,Pampanga Premier Medical Center,PRIVATE,Cartridge - Based PCR,02/15/22 - 12/31/22,175,Click the compass to find out!,https://www.google.com/maps/dir/?api=1,Pampanga Region 3 Municipality of Apalit Pampanga Premier Medical Center,14.9602382,120.759132
Region 3,Nueva Ecija,Cabanatuan City,Cabanatuan City M.V. Gallego General Hospital,PUBLIC,rRT PCR,12/31/22,176,Click the compass to find out!,https://www.google.com/maps/dir/?api=1,Nueva Ecija Region 3 Cabanatuan City Cabanatuan City M.V. Gallego General Hospital,15.4762261,120.9579215
Region 3,Bulacan,Malolos City,Graman Medical & Maternity Hospital Inc Molecular Laboratory,PRIVATE,Cartridge - Based PCR,12/31/22,177,Click the compass to find out!,https://www.google.com/maps/dir/?api=1,Bulacan Region 3 Malolos City Graman Medical & Maternity Hospital Inc Molecular Laboratory,14.8463374,120.8345283
Region 3,Nueva Ecija,Cabanatuan City,Next Gen PCR Diagnostic Laboratory,PRIVATE,rRT PCR,12/31/22,178,Click the compass to find out!,https://www.google.com/maps/dir/?api=1,Nueva Ecija Region 3 Cabanatuan City Next Gen PCR Diagnostic Laboratory,15.4865047,120.973393
Region 4A,Quezon,Lucena City,Lucena United Doctors Hospital and Medical Center,PRIVATE,rRT PCR,01/01/22 - 12/31/22,179,Click the compass to find out!,https://www.google.com/maps/dir/?api=1,Quezon Region 4A Lucena City Lucena United Doctors Hospital and Medical Center,13.947331,121.585288
Region 4A,Cavite,Imus City,City of Imus Molecular Laboratory,PUBLIC,rRT PCR,01/01/22 - 12/31/22,180,Click the compass to find out!,https://www.google.com/maps/dir/?api=1,Cavite Region 4A Imus City City of Imus Molecular Laboratory,14.4064221,120.9405057
Region 4A,Laguna,Sta. Rosa City,Qualimed Hospital Sta. Rosa,PRIVATE,rRT PCR,01/01/22 - 12/31/22,181,Click the compass to find out!,https://www.google.com/maps/dir/?api=1,Laguna Region 4A Sta. Rosa City Qualimed Hospital Sta. Rosa,14.2326603,121.0526422
Region 4A,Laguna,San Pablo City,Laguna Provincial Hospital - San Pablo District Hospital,PUBLIC,rRT PCR,01/01/22 - 12/31/22,182,Click the compass to find out!,https://www.google.com/maps/dir/?api=1,Laguna Region 4A San Pablo City Laguna Provincial Hospital - San Pablo District Hospital,14.0728641,121.3287454
Region 4A,Laguna,Municipality of Los Baños,UPLB Covid-19 Molecular Diagnostic Laboratory,PUBLIC,rRT PCR,01/01/22 - 12/31/22,183,Click the compass to find out!,https://www.google.com/maps/dir/?api=1,Laguna Region 4A Municipality of Los Baños UPLB Covid-19 Molecular Diagnostic Laboratory,14.1501812,121.2609348
Region 4A,Batangas,Batangas City,Philippine Red Cross- Batangas Chapter Molecular Laboratory,PRIVATE,rRT PCR,01/01/22 - 12/31/22,184,Click the compass to find out!,https://www.google.com/maps/dir/?api=1,Batangas Region 4A Batangas City Philippine Red Cross- Batangas Chapter Molecular Laboratory,13.7657029,121.0653129
Region 4A,Batangas,Lipa City,Mary Mediatrix Medical Center,PRIVATE,rRT PCR,01/01/22 - 12/31/22,185,Click the compass to find out!,https://www.google.com/maps/dir/?api=1,Batangas Region 4A Lipa City Mary Mediatrix Medical Center,13.9439574,121.1522633
Region 4A,Batangas,Tanauan City,Daniel O. Mercado Medical Center,PRIVATE,rRT PCR,01/01/22 - 12/31/22,186,Click the compass to find out!,https://www.google.com/maps/dir/?api=1,Batangas Region 4A Tanauan City Daniel O. Mercado Medical Center,14.0801109,121.1507907
Region 4A,Laguna,San Pablo City,San Pablo Colleges Medical Center,PRIVATE,rRT PCR,01/01/22 - 12/31/22,187,Click the compass to find out!,https://www.google.com/maps/dir/?api=1,Laguna Region 4A San Pablo City San Pablo Colleges Medical Center,14.0670772,121.3276139
Region 4A,Laguna,Calamba City,Calamba Medical Center,PRIVATE,rRT PCR,01/01/22 - 12/31/22,188,Click the compass to find out!,https://www.google.com/maps/dir/?api=1,Laguna Region 4A Calamba City Calamba Medical Center,14.2063963,121.1530018
Region 4A,Quezon,Municipality of Gumaca,"Rakkk Prophet Medical Center, Inc.",PRIVATE,Cartridge - Based PCR,01/01/22 - 12/31/22,189,Click the compass to find out!,https://www.google.com/maps/dir/?api=1,"Quezon Region 4A Municipality of Gumaca Rakkk Prophet Medical Center, Inc.",13.9321915,122.0920068
Region 4A,Batangas,Batangas City,Batangas Medical Center,PUBLIC,rRT PCR,01/01/22 - 12/31/22,190,Click the compass to find out!,https://www.google.com/maps/dir/?api=1,Batangas Region 4A Batangas City Batangas Medical Center,13.7668617,121.0663041
Region 4A,Batangas,Batangas City,Batangas Medical Center,PUBLIC,Cartridge - Based PCR,01/01/22 - 12/31/22,191,Click the compass to find out!,https://www.google.com/maps/dir/?api=1,Batangas Region 4A Batangas City Batangas Medical Center,13.7668617,121.0663041
Region 4A,Laguna,Municipality of Sta. Cruz,"Laguna Holy Family Hospital, Inc.",PRIVATE,rRT PCR,01/01/22 - 12/31/22,192,Click the compass to find out!,https://www.google.com/maps/dir/?api=1,"Laguna Region 4A Municipality of Sta. Cruz Laguna Holy Family Hospital, Inc.",14.2691095,121.4113308
Region 4A,Rizal,Antipolo City,Fatima University Medical Center Antipolo Corp.,PRIVATE,rRT PCR,01/01/22 - 12/31/22,193,Click the compass to find out!,https://www.google.com/maps/dir/?api=1,Rizal Region 4A Antipolo City Fatima University Medical Center Antipolo Corp.,14.6192442,121.1516881
Region 4A,Cavite,Dasmariñas City,De La Salle Medical and Health Sciences Institute,PRIVATE,rRT PCR,01/01/22 - 12/31/22,194,Click the compass to find out!,https://www.google.com/maps/dir/?api=1,Cavite Region 4A Dasmariñas City De La Salle Medical and Health Sciences Institute,14.3277349,120.9432678
Region 4A,Cavite,Municipality of Kawit,Stark Molecular Laboratory Inc.,PRIVATE,rRT PCR,01/01/22 - 12/31/22,195,Click the compass to find out!,https://www.google.com/maps/dir/?api=1,Cavite Region 4A Municipality of Kawit Stark Molecular Laboratory Inc.,14.465364,120.9188715
Region 4A,Laguna,"City of Sta, Rosa",Sta. Rosa CHO,PUBLIC,Cartridge - Based PCR,01/01/22 - 12/31/22,196,Click the compass to find out!,https://www.google.com/maps/dir/?api=1,"Laguna Region 4A City of Sta, Rosa Sta. Rosa CHO",14.308716,121.110685
Region 4A,Batangas,Municipality of Mabini,Mabini Community Hospital,PUBLIC,Cartridge - Based PCR,01/01/22 - 12/31/22,197,Click the compass to find out!,https://www.google.com/maps/dir/?api=1,Batangas Region 4A Municipality of Mabini Mabini Community Hospital,13.7573253,120.9371882
Region 4A,Cavite,General Trias City,GentriMed Molecular Laboratory,PRIVATE,rRT PCR,01/01/22 - 12/31/22,198,Click the compass to find out!,https://www.google.com/maps/dir/?api=1,Cavite Region 4A General Trias City GentriMed Molecular Laboratory,14.2893825,120.9070709
Region 4A,Laguna,Cabuyao City,"Laguna Holy Family Hospital, Inc - Satellite Molecular Laboratory",PRIVATE,rRT PCR,01/01/22 - 12/31/22,199,Click the compass to find out!,https://www.google.com/maps/dir/?api=1,"Laguna Region 4A Cabuyao City Laguna Holy Family Hospital, Inc - Satellite Molecular Laboratory",14.274107,121.1195496
Region 4A,Rizal,Antipolo City,Soriano-Leyble Medical and Maternity Hospital,PRIVATE,rRT PCR,01/01/22 - 12/31/22,200,Click the compass to find out!,https://www.google.com/maps/dir/?api=1,Rizal Region 4A Antipolo City Soriano-Leyble Medical and Maternity Hospital,14.588399,121.177225
Region 4A,Rizal,Antipolo City,Antipolo City Molecular Laboratory,PUBLIC,rRT PCR,01/01/22 - 12/31/22,201,Click the compass to find out!,https://www.google.com/maps/dir/?api=1,Rizal Region 4A Antipolo City Antipolo City Molecular Laboratory,14.5854229,121.1705479
Region 4A,Batangas,Lipa City,Ospital ng Lipa,PUBLIC,rRT PCR,01/01/22 - 12/31/22,202,Click the compass to find out!,https://www.google.com/maps/dir/?api=1,Batangas Region 4A Lipa City Ospital ng Lipa,13.9572247,121.1623585
Region 4A,Laguna,Cabuyao City,"First Cabuyao Hospital and Medical Center, Inc.",PRIVATE,Cartridge - Based PCR,01/01/22 - 12/31/22,203,Click the compass to find out!,https://www.google.com/maps/dir/?api=1,"Laguna Region 4A Cabuyao City First Cabuyao Hospital and Medical Center, Inc.",14.266694,121.1260757
Region 4A,Cavite,Dasmarinas City,City of Dasmarinas Molecular Diagnostic Laboratory,PUBLIC,rRT PCR,01/01/22 - 12/31/22,204,Click the compass to find out!,https://www.google.com/maps/dir/?api=1,Cavite Region 4A Dasmarinas City City of Dasmarinas Molecular Diagnostic Laboratory,14.2522326,120.9476596
Region 4A,Quezon,Municipality of Mauban,Mauban Municipal Health Office Molecular Laboratory,PUBLIC,rRT PCR,01/01/22 - 12/31/22,205,Click the compass to find out!,https://www.google.com/maps/dir/?api=1,Quezon Region 4A Municipality of Mauban Mauban Municipal Health Office Molecular Laboratory,14.1899818,121.7316421
Region 4A,Laguna,Sta. Rosa City,The Medical City South Luzon,PRIVATE,rRT PCR,01/01/22 - 12/31/22,206,Click the compass to find out!,https://www.google.com/maps/dir/?api=1,Laguna Region 4A Sta. Rosa City The Medical City South Luzon,14.2484642,121.0672258
Region 4A,Rizal,Municipality of Cainta,Breeze Medical Services,PRIVATE,rRT PCR,01/01/22 - 12/31/22,207,Click the compass to find out!,https://www.google.com/maps/dir/?api=1,Rizal Region 4A Municipality of Cainta Breeze Medical Services,14.6169887,121.1018212
Region 4A,Batangas,Lipa City,Lipa Medix Medical Center,PRIVATE,Cartridge - Based PCR,01/01/22 - 12/31/22,208,Click the compass to find out!,https://www.google.com/maps/dir/?api=1,Batangas Region 4A Lipa City Lipa Medix Medical Center,13.9476661,121.1569668
Region 4A,Cavite,Bacoor City,"St. Dominic Medical Center, Inc.",PRIVATE,rRT PCR,12/31/22,209,Click the compass to find out!,https://www.google.com/maps/dir/?api=1,"Cavite Region 4A Bacoor City St. Dominic Medical Center, Inc.",14.4592455,120.9607356
Region 4A,Laguna,City of Biñan,UPH - Dr. Jose G. Tamayo Medical Center,PRIVATE,Cartridge - Based PCR,01/07/22 - 12/31/22,210,Click the compass to find out!,https://www.google.com/maps/dir/?api=1,Laguna Region 4A City of Biñan UPH - Dr. Jose G. Tamayo Medical Center,14.3311269,121.0853931
Region 4A,Quezon,Lucena City,Mount Carmel Diocesan General Hospital,PRIVATE,rRT PCR,12/31/22,211,Click the compass to find out!,https://www.google.com/maps/dir/?api=1,Quezon Region 4A Lucena City Mount Carmel Diocesan General Hospital,13.9408018,121.6111173
Region 4A,Laguna,City of Biñan,RTSD - Biñan Molecular Diagnostic Laboratory,PRIVATE,Cartridge - Based PCR,12/31/22,212,Click the compass to find out!,https://www.google.com/maps/dir/?api=1,Laguna Region 4A City of Biñan RTSD - Biñan Molecular Diagnostic Laboratory,14.3036345,121.0781493
Region 4B,Palawan,Puerto Princesa City,Ospital ng Palawan,PUBLIC,Cartridge - Based PCR,01/01/22 - 12/31/22,213,Click the compass to find out!,https://www.google.com/maps/dir/?api=1,Palawan Region 4B Puerto Princesa City Ospital ng Palawan,9.7478371,118.7442524
Region 4B,Oriental Mindoro,Calapan City,Oriental Mindoro Provincial Hospital,PUBLIC,Cartridge - Based PCR,01/01/22 - 12/31/22,214,Click the compass to find out!,https://www.google.com/maps/dir/?api=1,Oriental Mindoro Region 4B Calapan City Oriental Mindoro Provincial Hospital,13.376323,121.1777419
Region 4B,Palawan,Municipality of Culion,Culion Sanitarium and General Hospital,PUBLIC,Cartridge - Based PCR,01/01/22 - 12/31/22,215,Click the compass to find out!,https://www.google.com/maps/dir/?api=1,Palawan Region 4B Municipality of Culion Culion Sanitarium and General Hospital,11.8915352,120.0234139
Region 4B,Oriental Mindoro,Municipality of Puerto Galera,"Puerto Galera Molecular Laboratory (Formerly Best Care Medical Clinic & Diagnostic Center, Inc.)",PUBLIC,Cartridge - Based PCR,01/01/22 - 12/31/22,216,Click the compass to find out!,https://www.google.com/maps/dir/?api=1,"Oriental Mindoro Region 4B Municipality of Puerto Galera Puerto Galera Molecular Laboratory (Formerly Best Care Medical Clinic & Diagnostic Center, Inc.)",13.4966446,120.9537807
Region 4B,Occidental Mindoro,Municipality of Mamburao,Occidental Mindoro Provincial Hospital,PUBLIC,Cartridge - Based PCR,01/01/22 - 12/31/22,217,Click the compass to find out!,https://www.google.com/maps/dir/?api=1,Occidental Mindoro Region 4B Municipality of Mamburao Occidental Mindoro Provincial Hospital,13.2306708,120.5860069
Region 4B,Palawan,Puerto Princesa City,Puerto Princesa City Molecular Laboratory,PUBLIC,rRT PCR,01/01/22 - 12/31/22,218,Click the compass to find out!,https://www.google.com/maps/dir/?api=1,Palawan Region 4B Puerto Princesa City Puerto Princesa City Molecular Laboratory,9.7845811,118.7346811
Region 4B,Palawan,Puerto Princesa City,PHO - Molecular Biology Laboratory,PUBLIC,rRT PCR,01/01/22 - 12/31/22,219,Click the compass to find out!,https://www.google.com/maps/dir/?api=1,Palawan Region 4B Puerto Princesa City PHO - Molecular Biology Laboratory,9.7638429,118.7473298
Region 4B,Marinduque,Municipality of Boac,Marinduque Provincial Hospital,PUBLIC,Cartridge - Based PCR,12/31/22,220,Click the compass to find out!,https://www.google.com/maps/dir/?api=1,Marinduque Region 4B Municipality of Boac Marinduque Provincial Hospital,13.4436408,121.8281699
Region 4B,Oriental Mindoro,Calapan City,Maria Estella General Hospital,PRIVATE,Cartridge - Based PCR,12/31/22,221,Click the compass to find out!,https://www.google.com/maps/dir/?api=1,Oriental Mindoro Region 4B Calapan City Maria Estella General Hospital,13.3770935,121.1645706
Region 5,Albay,Legazpi City,Bicol Regional Diagnostic and Reference Laboratory,PUBLIC,rRT PCR,01/01/22 - 12/31/22,222,Click the compass to find out!,https://www.google.com/maps/dir/?api=1,Albay Region 5 Legazpi City Bicol Regional Diagnostic and Reference Laboratory,13.1390621,123.7437995
Region 5,Camarines Sur,Naga City,Bicol Medical Center,PUBLIC,Cartridge - Based PCR,01/01/22 - 12/31/22,223,Click the compass to find out!,https://www.google.com/maps/dir/?api=1,Camarines Sur Region 5 Naga City Bicol Medical Center,13.6228858,123.1986953
Region 5,Sorsogon,Sorsogon City,Metro Health Specialist Hospital,PRIVATE,rRT PCR,01/01/22 - 12/31/22,224,Click the compass to find out!,https://www.google.com/maps/dir/?api=1,Sorsogon Region 5 Sorsogon City Metro Health Specialist Hospital,12.9822437,124.0239394
Region 5,Camarines Sur,Municipality of Cabusao,Bicol Region General Hospital and Geriatric Medical Center,PUBLIC,rRT PCR,01/01/22 - 12/31/22,225,Click the compass to find out!,https://www.google.com/maps/dir/?api=1,Camarines Sur Region 5 Municipality of Cabusao Bicol Region General Hospital and Geriatric Medical Center,13.766734,123.0318597
Region 5,Camarines Sur,Naga City,Naga City Hospital Molecular Laboratory,PUBLIC,rRT PCR,01/01/22 - 12/31/22,226,Click the compass to find out!,https://www.google.com/maps/dir/?api=1,Camarines Sur Region 5 Naga City Naga City Hospital Molecular Laboratory,13.6115009,123.211439
Region 5,Camarines Sur,Naga City,Bicol Medical Center,PUBLIC,rRT PCR,01/01/22 - 12/31/22,227,Click the compass to find out!,https://www.google.com/maps/dir/?api=1,Camarines Sur Region 5 Naga City Bicol Medical Center,13.6228858,123.1986953
Region 5,Albay,Legazpi City,BRTTH Covid-19 Testing Laboratoy,PUBLIC,rRT PCR,12/31/22,228,Click the compass to find out!,https://www.google.com/maps/dir/?api=1,Albay Region 5 Legazpi City BRTTH Covid-19 Testing Laboratoy,13.1470067,123.7247044
Region 5,Camarines Sur,Municipality of Bula,Camsur Diagnostic Laboratory,PUBLIC,rRT PCR,12/31/22,229,Click the compass to find out!,https://www.google.com/maps/dir/?api=1,Camarines Sur Region 5 Municipality of Bula Camsur Diagnostic Laboratory,13.4689356,123.277158
Region 5,Sorsogon,Sorsogon City,Sorsogon Medical Mission Group Hospital and Health Services Cooperative,PRIVATE,rRT PCR,12/31/22,230,Click the compass to find out!,https://www.google.com/maps/dir/?api=1,Sorsogon Region 5 Sorsogon City Sorsogon Medical Mission Group Hospital and Health Services Cooperative,12.9784042,123.9869517
Region 5,Camarines Sur,Municipality of Libmana,JTRBicol Molecular Diagnostic Laboratory,PRIVATE,Cartridge - Based PCR,02/16/22 - 12/31/22,231,Click the compass to find out!,https://www.google.com/maps/dir/?api=1,Camarines Sur Region 5 Municipality of Libmana JTRBicol Molecular Diagnostic Laboratory,13.6828973,122.9663018
Region 6,Iloilo,Iloilo City,Western Visayas Medical Center (WVMC),PUBLIC,rRT PCR,01/01/22 - 12/31/22,232,Click the compass to find out!,https://www.google.com/maps/dir/?api=1,Iloilo Region 6 Iloilo City Western Visayas Medical Center (WVMC),10.718759,122.5415956
Region 6,Negros Occidental,Silay City,Teresita Jalandoni Provincial Hospital,PUBLIC,rRT PCR,01/01/22 - 12/31/22,233,Click the compass to find out!,https://www.google.com/maps/dir/?api=1,Negros Occidental Region 6 Silay City Teresita Jalandoni Provincial Hospital,10.8073138,122.9782834
Region 6,Iloilo,Iloilo City,Qualimed Health Network - Iloilo,PRIVATE,rRT PCR,01/01/22 - 12/31/22,234,Click the compass to find out!,https://www.google.com/maps/dir/?api=1,Iloilo Region 6 Iloilo City Qualimed Health Network - Iloilo,10.706521,122.5476095
Region 6,Negros Occidental,Bacolod City,Corazon Locsin Montelibano Memorial Regional Hospital,PUBLIC,rRT PCR,01/01/22 - 12/31/22,235,Click the compass to find out!,https://www.google.com/maps/dir/?api=1,Negros Occidental Region 6 Bacolod City Corazon Locsin Montelibano Memorial Regional Hospital,10.6722173,122.950994
Region 6,Negros Occidental,Bacolod City,Bacolod Queen of Mercy Hospital,PRIVATE,rRT PCR,01/01/22 - 12/31/22,236,Click the compass to find out!,https://www.google.com/maps/dir/?api=1,Negros Occidental Region 6 Bacolod City Bacolod Queen of Mercy Hospital,10.6901187,122.9715492
Region 6,Negros Occidental,Bacolod City,"The Doctors Hospital, Inc.",PRIVATE,rRT PCR,01/01/22 - 12/31/22,237,Click the compass to find out!,https://www.google.com/maps/dir/?api=1,"Negros Occidental Region 6 Bacolod City The Doctors Hospital, Inc.",10.6781181,122.9604044
Region 6,Negros Occidental,Bacolod City,PRC - Negros Occidental Molecular Laboratory,PRIVATE,rRT PCR,01/01/22 - 12/31/22,238,Click the compass to find out!,https://www.google.com/maps/dir/?api=1,Negros Occidental Region 6 Bacolod City PRC - Negros Occidental Molecular Laboratory,10.6840053,122.9563021
Region 6,Aklan,Municipality of Kalibo,Dr. Rafael S. Tumbokon Memorial Hospital,PUBLIC,rRT PCR,01/01/22 - 12/31/22,239,Click the compass to find out!,https://www.google.com/maps/dir/?api=1,Aklan Region 6 Municipality of Kalibo Dr. Rafael S. Tumbokon Memorial Hospital,11.7051918,122.3657082
Region 6,Iloilo,Iloilo City,Metro Iloilo Hospital and Medical Center,PRIVATE,rRT PCR,01/01/22 - 12/31/22,240,Click the compass to find out!,https://www.google.com/maps/dir/?api=1,Iloilo Region 6 Iloilo City Metro Iloilo Hospital and Medical Center,10.762569,122.5806212
Region 6,Capiz,Roxas City,Roxas City Diagnostic and Laboratory Center,PUBLIC,rRT PCR,01/01/22 - 12/31/22,241,Click the compass to find out!,https://www.google.com/maps/dir/?api=1,Capiz Region 6 Roxas City Roxas City Diagnostic and Laboratory Center,11.5587119,122.7644611
Region 6,Iloilo,Iloilo City,Uswag Iloilo City Molecular Laboratory,PUBLIC,rRT PCR,01/01/22 - 12/31/22,242,Click the compass to find out!,https://www.google.com/maps/dir/?api=1,Iloilo Region 6 Iloilo City Uswag Iloilo City Molecular Laboratory,10.6993145,122.5489896
Region 6,Capiz,Roxas City,Roxas Memorial Provincial Hospital Molecular Laboratory,PUBLIC,rRT PCR,01/01/22 - 12/31/22,243,Click the compass to find out!,https://www.google.com/maps/dir/?api=1,Capiz Region 6 Roxas City Roxas Memorial Provincial Hospital Molecular Laboratory,11.5880118,122.752896
Region 6,Iloilo,Iloilo City,Western Visayas State University - Molecular Diagnostic Laboratory,PUBLIC,rRT PCR,01/01/22 - 12/31/22,244,Click the compass to find out!,https://www.google.com/maps/dir/?api=1,Iloilo Region 6 Iloilo City Western Visayas State University - Molecular Diagnostic Laboratory,10.7136662,122.5623529
Region 6,Negros Occidental,Bacolod City,Dr. Pablo O. Torre Memorial Hospital,PRIVATE,rRT PCR,01/01/22 - 12/31/22,245,Click the compass to find out!,https://www.google.com/maps/dir/?api=1,Negros Occidental Region 6 Bacolod City Dr. Pablo O. Torre Memorial Hospital,10.6824744,122.9581279
Region 6,Iloilo,Municipality of Pototan,Iloilo Provincial Hospital,PUBLIC,rRT PCR,01/01/22 - 12/31/22,246,Click the compass to find out!,https://www.google.com/maps/dir/?api=1,Iloilo Region 6 Municipality of Pototan Iloilo Provincial Hospital,10.9265558,122.6302338
Region 6,Iloilo,Passi City,Philippine Red Cross Passi City Molecular Laboratory,PRIVATE,rRT PCR,01/01/22 - 12/31/22,247,Click the compass to find out!,https://www.google.com/maps/dir/?api=1,Iloilo Region 6 Passi City Philippine Red Cross Passi City Molecular Laboratory,11.1218888,122.6481068
Region 6,Negros Occidental,Municipality of Villadolid,"Safeguard DNA Diagnostics, Inc.",PRIVATE,rRT PCR,01/01/22 - 12/31/22,248,Click the compass to find out!,https://www.google.com/maps/dir/?api=1,"Negros Occidental Region 6 Municipality of Villadolid Safeguard DNA Diagnostics, Inc.",10.4689768,122.8422959
Region 6,Antique,Municipality of San Jose,Antique Bio-Molecular Laboratory,PUBLIC,rRT PCR,01/01/22 - 12/31/22,249,Click the compass to find out!,https://www.google.com/maps/dir/?api=1,Antique Region 6 Municipality of San Jose Antique Bio-Molecular Laboratory,10.7489069,121.9412608
Region 6,Aklan,Municipality Malay,Next Gen PCR Diagnostic Laboratory,PRIVATE,rRT PCR,01/01/22 - 12/31/22,250,Click the compass to find out!,https://www.google.com/maps/dir/?api=1,Aklan Region 6 Municipality Malay Next Gen PCR Diagnostic Laboratory,11.9286376,121.9506079
Region 6,Aklan,Municipality Malay,Next Gen PCR Diagnostic Laboratory,PRIVATE,Cartridge - Based PCR,01/01/22 - 12/31/22,251,Click the compass to find out!,https://www.google.com/maps/dir/?api=1,Aklan Region 6 Municipality Malay Next Gen PCR Diagnostic Laboratory,11.9286376,121.9506079
Region 6,Iloilo,Iloilo City,The Medical City - Iloilo,PRIVATE,rRT PCR,12/31/22,252,Click the compass to find out!,https://www.google.com/maps/dir/?api=1,Iloilo Region 6 Iloilo City The Medical City - Iloilo,10.6995497,122.5427714
Region 7,Cebu,Lapu Lapu City,Allegiant Regional Care Hospital,PRIVATE,rRT PCR,01/01/22 - 12/31/22,253,Click the compass to find out!,https://www.google.com/maps/dir/?api=1,Cebu Region 7 Lapu Lapu City Allegiant Regional Care Hospital,10.2824818,123.9901031
Region 7,Cebu,Lapu Lapu City,Allegiant Regional Care Hospital,PRIVATE,Cartridge - Based PCR,01/11/22 - 12/31/22,254,Click the compass to find out!,https://www.google.com/maps/dir/?api=1,Cebu Region 7 Lapu Lapu City Allegiant Regional Care Hospital,10.2824818,123.9901031
Region 7,Cebu,Cebu City,Vicente Sotto Memorial Medical Center (VSMMC),PUBLIC,rRT PCR,01/01/22 - 12/31/22,255,Click the compass to find out!,https://www.google.com/maps/dir/?api=1,Cebu Region 7 Cebu City Vicente Sotto Memorial Medical Center (VSMMC),10.3080071,123.8915916
Region 7,Cebu,Lapu Lapu City,Prime Care Alpha Covid-19 Testing Laboratory,PRIVATE,rRT PCR,01/01/22 - 12/31/22,256,Click the compass to find out!,https://www.google.com/maps/dir/?api=1,Cebu Region 7 Lapu Lapu City Prime Care Alpha Covid-19 Testing Laboratory,10.3125601,123.9758296
Region 7,Cebu,Mandaue City,Philippine Red Cross Cebu Molecular Laboratory,PRIVATE,rRT PCR,01/01/22 - 12/31/22,257,Click the compass to find out!,https://www.google.com/maps/dir/?api=1,Cebu Region 7 Mandaue City Philippine Red Cross Cebu Molecular Laboratory,10.3123873,123.8919831
Region 7,Cebu,Mandaue City,University of Cebu Medical Center,PRIVATE,rRT PCR,01/01/22 - 12/31/22,258,Click the compass to find out!,https://www.google.com/maps/dir/?api=1,Cebu Region 7 Mandaue City University of Cebu Medical Center,10.3204912,123.9309247
Region 7,Cebu,Cebu City,"Cebu Doctors University Hospital, Inc.",PRIVATE,rRT PCR,01/01/22 - 12/31/22,259,Click the compass to find out!,https://www.google.com/maps/dir/?api=1,"Cebu Region 7 Cebu City Cebu Doctors University Hospital, Inc.",10.3144559,123.8920288
Region 7,Bohol,Tagbilaran City,Governor Celestino Gallares Memorial Hospital,PUBLIC,rRT PCR,01/01/22 - 12/31/22,260,Click the compass to find out!,https://www.google.com/maps/dir/?api=1,Bohol Region 7 Tagbilaran City Governor Celestino Gallares Memorial Hospital,9.644204,123.857058
Region 7,Cebu,Cebu City,Chong Hua Hospital,PRIVATE,rRT PCR,01/01/22 - 12/31/22,261,Click the compass to find out!,https://www.google.com/maps/dir/?api=1,Cebu Region 7 Cebu City Chong Hua Hospital,10.3101043,123.8911886
Region 7,Bohol,Tagbilaran City,Bohol Containerized PCR Laboratory,PUBLIC,rRT PCR,01/01/22 - 12/31/22,262,Click the compass to find out!,https://www.google.com/maps/dir/?api=1,Bohol Region 7 Tagbilaran City Bohol Containerized PCR Laboratory,9.6572379,123.8674013
Region 7,Cebu,Cebu City,Cebu TB Reference Laboratory,PUBLIC,rRT PCR,01/01/22 - 06/30/22,263,Click the compass to find out!,https://www.google.com/maps/dir/?api=1,Cebu Region 7 Cebu City Cebu TB Reference Laboratory,10.3073428,123.8934805
Region 7,Cebu,Cebu City,Cebu TB Reference Laboratory,PUBLIC,Cartridge - Based PCR,01/01/22 - 06/30/22,264,Click the compass to find out!,https://www.google.com/maps/dir/?api=1,Cebu Region 7 Cebu City Cebu TB Reference Laboratory,10.3073428,123.8934805
Region 7,Negros Oriental,Dumaguete City,Negros Oriental Provincial Hospital,PUBLIC,rRT PCR,01/01/22 - 12/31/22,265,Click the compass to find out!,https://www.google.com/maps/dir/?api=1,Negros Oriental Region 7 Dumaguete City Negros Oriental Provincial Hospital,9.3227119,123.3004557
Region 7,Cebu,Cebu City,"Perpetual Succour Hospital of Cebu, Inc.",PRIVATE,rRT PCR,01/01/22 - 12/31/22,266,Click the compass to find out!,https://www.google.com/maps/dir/?api=1,"Cebu Region 7 Cebu City Perpetual Succour Hospital of Cebu, Inc.",10.3147621,123.8992719
Region 7,Cebu,Cebu City,"BioPath Clinical Diagnostic, Inc. - AFRIMS",PRIVATE,rRT PCR,01/01/22 - 12/31/22,267,Click the compass to find out!,https://www.google.com/maps/dir/?api=1,"Cebu Region 7 Cebu City BioPath Clinical Diagnostic, Inc. - AFRIMS",10.3068552,123.8937278
Region 7,Cebu,Cebu City,"BioPath Clinical Diagnostic, Inc. - AFRIMS PCR laboratory",PRIVATE,Cartridge - Based PCR,01/01/22 - 12/31/22,268,Click the compass to find out!,https://www.google.com/maps/dir/?api=1,"Cebu Region 7 Cebu City BioPath Clinical Diagnostic, Inc. - AFRIMS PCR laboratory",10.3068552,123.8937278
Region 7,Cebu,Cebu City,RHS 7 Molecular Laboratory (PNP),PUBLIC,rRT PCR,01/01/22 - 12/31/22,269,Click the compass to find out!,https://www.google.com/maps/dir/?api=1,Cebu Region 7 Cebu City RHS 7 Molecular Laboratory (PNP),10.3127588,123.9040834
Region 7,Cebu,Cebu City,"Perpetual Succour Hospital of Cebu, Inc.",PRIVATE,Cartridge - Based PCR,01/01/22 - 12/31/22,270,Click the compass to find out!,https://www.google.com/maps/dir/?api=1,"Cebu Region 7 Cebu City Perpetual Succour Hospital of Cebu, Inc.",10.3147621,123.8992719
Region 7,Cebu,Cebu City,Chong Hua Hospital,PRIVATE,Cartridge - Based PCR,01/01/22 - 12/31/22,271,Click the compass to find out!,https://www.google.com/maps/dir/?api=1,Cebu Region 7 Cebu City Chong Hua Hospital,10.3101043,123.8911886
Region 7,Cebu,Cebu City,"Cebu Doctors University Hospital, Inc.",PRIVATE,Cartridge - Based PCR,01/01/22 - 12/31/22,272,Click the compass to find out!,https://www.google.com/maps/dir/?api=1,"Cebu Region 7 Cebu City Cebu Doctors University Hospital, Inc.",10.3144559,123.8920288
Region 7,Cebu,Dumaguete City,"Silliman University Medical Center Foundation, Inc.",PRIVATE,Cartridge - Based PCR,01/01/22 - 12/31/22,273,Click the compass to find out!,https://www.google.com/maps/dir/?api=1,"Cebu Region 7 Dumaguete City Silliman University Medical Center Foundation, Inc.",9.3164356,123.3042132
Region 8,Leyte,Tacloban City,Divine Word Hospital Viralogy Laboratory,PRIVATE,rRT PCR,01/01/22 - 12/31/22,274,Click the compass to find out!,https://www.google.com/maps/dir/?api=1,Leyte Region 8 Tacloban City Divine Word Hospital Viralogy Laboratory,11.2414401,125.000202
Region 8,Leyte,Tacloban City,Eastern Visayas Regional Covid-19 Testing Center,PUBLIC,rRT PCR,01/01/22 - 12/31/22,275,Click the compass to find out!,https://www.google.com/maps/dir/?api=1,Leyte Region 8 Tacloban City Eastern Visayas Regional Covid-19 Testing Center,11.2510311,125.0045705
Region 8,Leyte,Ormoc City,OSPA - Farmers' Medical Center,PRIVATE,rRT PCR,01/01/22 - 12/31/22,276,Click the compass to find out!,https://www.google.com/maps/dir/?api=1,Leyte Region 8 Ormoc City OSPA - Farmers' Medical Center,11.0038493,124.6148377
Region 8,Leyte,Maasin City,Salvacion Oppus Yniguez Memorial Provincial Hospital,PUBLIC,rRT PCR,01/01/22 - 12/31/22,277,Click the compass to find out!,https://www.google.com/maps/dir/?api=1,Leyte Region 8 Maasin City Salvacion Oppus Yniguez Memorial Provincial Hospital,10.1343479,124.8459465
Region 9,Zamboanga del Sur,Zamboanga City,Zamboanga City Medical Center-Department of Agriculture Satellite Laboratory for COVID-19 Testing,PUBLIC,rRT PCR,01/01/22 - 12/31/22,278,Click the compass to find out!,https://www.google.com/maps/dir/?api=1,Zamboanga del Sur Region 9 Zamboanga City Zamboanga City Medical Center-Department of Agriculture Satellite Laboratory for COVID-19 Testing,6.9072509,122.0809816
Region 9,Zamboanga del Sur,Zamboanga City,Zamboanga City Medical Center,PUBLIC,Cartridge - Based PCR,01/01/22 - 12/31/22,279,Click the compass to find out!,https://www.google.com/maps/dir/?api=1,Zamboanga del Sur Region 9 Zamboanga City Zamboanga City Medical Center,6.9072509,122.0809816
Region 9,Zamboanga del Sur,Zamboanga City,Ciudad Medical Zamboanga,PRIVATE,rRT PCR,01/01/22 - 12/31/22,280,Click the compass to find out!,https://www.google.com/maps/dir/?api=1,Zamboanga del Sur Region 9 Zamboanga City Ciudad Medical Zamboanga,6.9148322,122.0762941
Region 9,Zamboanga del Sur,Zamboanga City,Philippine Red Cross - Molecular Biology Laboratory,PRIVATE,rRT PCR,01/01/22 - 12/31/22,281,Click the compass to find out!,https://www.google.com/maps/dir/?api=1,Zamboanga del Sur Region 9 Zamboanga City Philippine Red Cross - Molecular Biology Laboratory,6.903216,122.0783965
Region 9,Zamboanga del Sur,Pagadian City,Zamboanga Del Sur Medical Center PCR Laboratory,PUBLIC,rRT PCR,01/01/22 - 12/31/22,282,Click the compass to find out!,https://www.google.com/maps/dir/?api=1,Zamboanga del Sur Region 9 Pagadian City Zamboanga Del Sur Medical Center PCR Laboratory,7.8435421,123.4297684
Region 9,Zamboanga del Sur,Zamboanga City,West Metro Medical Center,PRIVATE,Cartridge - Based PCR,01/01/22 - 12/31/22,283,Click the compass to find out!,https://www.google.com/maps/dir/?api=1,Zamboanga del Sur Region 9 Zamboanga City West Metro Medical Center,6.923419,122.079139
Region 9,Zamboanaga del Norte,Municipality of Roxas,Zamboanga del Norte Medical Center,PUBLIC,rRT PCR,01/01/22 - 12/31/22,284,Click the compass to find out!,https://www.google.com/maps/dir/?api=1,Zamboanaga del Norte Region 9 Municipality of Roxas Zamboanga del Norte Medical Center,8.4515732,123.2026122
Region 9,Zamboanaga del Norte,Dapitan City,Dr. Jose Rizal Memorial Hospital,PUBLIC,rRT PCR,01/01/22 - 12/31/22,285,Click the compass to find out!,https://www.google.com/maps/dir/?api=1,Zamboanaga del Norte Region 9 Dapitan City Dr. Jose Rizal Memorial Hospital,8.6390996,123.4157673
Region 9,Zamboanga del Sur,Zamboanga City,City Government of Zamboanga Molecular Testing Center for Covid-19,PUBLIC,rRT PCR,12/31/22,286,Click the compass to find out!,https://www.google.com/maps/dir/?api=1,Zamboanga del Sur Region 9 Zamboanga City City Government of Zamboanga Molecular Testing Center for Covid-19,6.9040708,122.076141
Region 10,Misamis Oriental,Cagayan De Oro City,Northern Mindanao Medical Center Molecular Laboratory,PUBLIC,Cartridge - Based PCR,01/01/22 - 12/31/22,287,Click the compass to find out!,https://www.google.com/maps/dir/?api=1,Misamis Oriental Region 10 Cagayan De Oro City Northern Mindanao Medical Center Molecular Laboratory,8.4858824,124.6494494
Region 10,Misamis Oriental,Cagayan De Oro City,Northern MIndanao Medical Center Satellite Covid-19 Laboratory,PUBLIC,rRT PCR,01/01/22 - 12/31/22,288,Click the compass to find out!,https://www.google.com/maps/dir/?api=1,Misamis Oriental Region 10 Cagayan De Oro City Northern MIndanao Medical Center Satellite Covid-19 Laboratory,8.4858824,124.6494494
Region 10,Misamis Oriental,Cagayan De Oro City,"Polymedic Medical Plaza, Inc.",PRIVATE,rRT PCR,01/01/22 - 12/31/22,289,Click the compass to find out!,https://www.google.com/maps/dir/?api=1,"Misamis Oriental Region 10 Cagayan De Oro City Polymedic Medical Plaza, Inc.",8.4837646,124.661665
Region 10,Misamis Oriental,Cagayan De Oro City,Maria Reyna Xavier University Hospital,PRIVATE,rRT PCR,01/01/22 - 12/31/22,290,Click the compass to find out!,https://www.google.com/maps/dir/?api=1,Misamis Oriental Region 10 Cagayan De Oro City Maria Reyna Xavier University Hospital,8.4756089,124.6549129
Region 10,Lanao Del Norte,Municipality of Kapatagan,Lanao Del Norte Covid-19 Testing Laboratory,PUBLIC,rRT PCR,01/01/22 - 12/31/22,291,Click the compass to find out!,https://www.google.com/maps/dir/?api=1,Lanao Del Norte Region 10 Municipality of Kapatagan Lanao Del Norte Covid-19 Testing Laboratory,7.9158026,123.7726722
Region 10,Misamis Oriental,Cagayan De Oro City,Philippine Red Cross - Cagayan De Oro,PRIVATE,rRT PCR,01/01/22 - 12/31/22,292,Click the compass to find out!,https://www.google.com/maps/dir/?api=1,Misamis Oriental Region 10 Cagayan De Oro City Philippine Red Cross - Cagayan De Oro,8.4542363,124.6318977
Region 10,Misamis Oriental,Cagayan De Oro City,Northern Mindanao Medical Center Molecular Laboratory,PUBLIC,rRT PCR,01/01/22 - 12/31/22,293,Click the compass to find out!,https://www.google.com/maps/dir/?api=1,Misamis Oriental Region 10 Cagayan De Oro City Northern Mindanao Medical Center Molecular Laboratory,8.4858824,124.6494494
Region 10,Misamis Occidental,Ozamis City,Mayor Hilarion A. Ramiro Sr. Medical Center,PUBLIC,rRT PCR,01/01/22 - 12/31/22,294,Click the compass to find out!,https://www.google.com/maps/dir/?api=1,Misamis Occidental Region 10 Ozamis City Mayor Hilarion A. Ramiro Sr. Medical Center,8.169785,123.857918
Region 10,Misamis Occidental,Ozamis City,Mayor Hilarion A. Ramiro Sr. Medical Center,PUBLIC,Cartridge - Based PCR,12/31/22,295,Click the compass to find out!,https://www.google.com/maps/dir/?api=1,Misamis Occidental Region 10 Ozamis City Mayor Hilarion A. Ramiro Sr. Medical Center,8.169785,123.857918
Region 10,Misamis Occidental,Oroquieta City,Misamis Occidental RT-PCR Laboratory,PUBLIC,rRT PCR,01/01/22 - 12/31/22,296,Click the compass to find out!,https://www.google.com/maps/dir/?api=1,Misamis Occidental Region 10 Oroquieta City Misamis Occidental RT-PCR Laboratory,8.4644369,123.8034897
Region 10,Lanao Del Norte,Iligan City,Gregorio T. Lluch Memorial Hospital,PUBLIC,rRT PCR,01/01/22 - 12/31/22,297,Click the compass to find out!,https://www.google.com/maps/dir/?api=1,Lanao Del Norte Region 10 Iligan City Gregorio T. Lluch Memorial Hospital,8.2259824,124.2544897
Region 10,Bukidnon,Malaybalay City,Bukidnon Provincial Medical Center,PUBLIC,rRT PCR,01/01/22 - 12/31/22,298,Click the compass to find out!,https://www.google.com/maps/dir/?api=1,Bukidnon Region 10 Malaybalay City Bukidnon Provincial Medical Center,8.1279903,125.1286011
Region 11,Davao Del Sur,Davao City,Southern Philippines Medical Center (SPMC),PUBLIC,rRT PCR,01/01/22 - 12/31/22,299,Click the compass to find out!,https://www.google.com/maps/dir/?api=1,Davao Del Sur Region 11 Davao City Southern Philippines Medical Center (SPMC),7.0983727,125.6198369
Region 11,Davao Del Sur,Davao City,Davao One World Diagnostic Center Incorporated,PRIVATE,rRT PCR,01/01/22 - 12/31/22,300,Click the compass to find out!,https://www.google.com/maps/dir/?api=1,Davao Del Sur Region 11 Davao City Davao One World Diagnostic Center Incorporated,7.0606274,125.5702528
Region 11,Davao Del Norte,Tagum City,Davao Regional Medical Center,PUBLIC,Cartridge - Based PCR,01/01/22 - 12/31/22,301,Click the compass to find out!,https://www.google.com/maps/dir/?api=1,Davao Del Norte Region 11 Tagum City Davao Regional Medical Center,7.4219128,125.8280459
Region 11,Davao Del Sur,Davao City,Davao Doctors Hospital,PRIVATE,Cartridge - Based PCR,01/01/22 - 12/31/22,302,Click the compass to find out!,https://www.google.com/maps/dir/?api=1,Davao Del Sur Region 11 Davao City Davao Doctors Hospital,7.0701473,125.6042326
Region 11,Davao Del Sur,Davao City,Southern Philippines Medical Center (SPMC-SNL-MBL),PUBLIC,rRT PCR,01/01/22 - 12/31/22,303,Click the compass to find out!,https://www.google.com/maps/dir/?api=1,Davao Del Sur Region 11 Davao City Southern Philippines Medical Center (SPMC-SNL-MBL),7.0983727,125.6198369
Region 11,Davao Del Sur,Davao City,Davao International Airport Laboratory,PUBLIC,rRT PCR,01/01/22 - 12/31/22,304,Click the compass to find out!,https://www.google.com/maps/dir/?api=1,Davao Del Sur Region 11 Davao City Davao International Airport Laboratory,7.1302196,125.6452256
Region 11,Davao Del Sur,Davao City,PRO 11 RT-PCR Molecular Laboratory,PUBLIC,rRT PCR,01/01/22 - 12/31/22,305,Click the compass to find out!,https://www.google.com/maps/dir/?api=1,Davao Del Sur Region 11 Davao City PRO 11 RT-PCR Molecular Laboratory,7.1279384,125.6363286
Region 11,Davao Del Norte,Tagum City,Davao Regional Medical Center,PUBLIC,rRT PCR,01/01/22 - 12/31/22,306,Click the compass to find out!,https://www.google.com/maps/dir/?api=1,Davao Del Norte Region 11 Tagum City Davao Regional Medical Center,7.4219128,125.8280459
Region 11,Davao De Oro,Municipality of Montevista,Davao de Oro Provincial Hospital,PUBLIC,rRT PCR,01/01/22 - 12/31/22,307,Click the compass to find out!,https://www.google.com/maps/dir/?api=1,Davao De Oro Region 11 Municipality of Montevista Davao de Oro Provincial Hospital,7.725835,125.9910982
Region 11,Davao Del Sur,Davao City,Vitalab Molecular Laboratory,PRIVATE,rRT PCR,01/01/22 - 12/31/22,308,Click the compass to find out!,https://www.google.com/maps/dir/?api=1,Davao Del Sur Region 11 Davao City Vitalab Molecular Laboratory,7.0983108,125.6221873
Region 11,Davao Del Sur,Davao City,"Safeguard DNA Diagnostics, Inc.",PRIVATE,rRT PCR,01/01/22 - 12/31/22,309,Click the compass to find out!,https://www.google.com/maps/dir/?api=1,"Davao Del Sur Region 11 Davao City Safeguard DNA Diagnostics, Inc.",7.0842571,125.6124894
Region 11,Davao Del Sur,Davao City,Los Amigos Davao Laboratory,PUBLIC,rRT PCR,01/01/22 - 12/31/22,310,Click the compass to find out!,https://www.google.com/maps/dir/?api=1,Davao Del Sur Region 11 Davao City Los Amigos Davao Laboratory,7.1415313,125.4806787
Region 11,Davao De Oro,Municipality of Maco,APEX Mining CO. Inc,PRIVATE,rRT PCR,01/01/22 - 12/31/22,311,Click the compass to find out!,https://www.google.com/maps/dir/?api=1,Davao De Oro Region 11 Municipality of Maco APEX Mining CO. Inc,7.359251,125.8579857
Region 11,Davao Del Sur,Davao City,"Brokenshire Integrated Health Ministries, INC",PRIVATE,rRT PCR,01/01/22 - 12/31/22,312,Click the compass to find out!,https://www.google.com/maps/dir/?api=1,"Davao Del Sur Region 11 Davao City Brokenshire Integrated Health Ministries, INC",7.0741894,125.5972341
Region 12,Cotabato,Cotabato City,Cotabato Regional and Medical Center,PUBLIC,rRT PCR,01/01/22 - 12/31/22,313,Click the compass to find out!,https://www.google.com/maps/dir/?api=1,Cotabato Region 12 Cotabato City Cotabato Regional and Medical Center,7.2002359,124.2362898
Region 12,Cotabato,Cotabato City,Cotabato Regional and Medical Center,PUBLIC,Cartridge - Based PCR,01/01/22 - 12/31/22,314,Click the compass to find out!,https://www.google.com/maps/dir/?api=1,Cotabato Region 12 Cotabato City Cotabato Regional and Medical Center,7.2002359,124.2362898
Region 12,South Cotabato,Koronadal City,Dr. Arturo Pingoy Medical Center,PRIVATE,Cartridge - Based PCR,01/01/22 - 12/31/22,315,Click the compass to find out!,https://www.google.com/maps/dir/?api=1,South Cotabato Region 12 Koronadal City Dr. Arturo Pingoy Medical Center,6.5053431,124.8370635
Region 12,South Cotabato,General Santos City,St. Elizabeth Hospital,PRIVATE,Cartridge - Based PCR,01/01/22 - 12/31/22,316,Click the compass to find out!,https://www.google.com/maps/dir/?api=1,South Cotabato Region 12 General Santos City St. Elizabeth Hospital,6.118488,125.1798902
Region 12,South Cotabato,General Santos City,Dr. Jorge P. Royeca Hospital,PUBLIC,rRT PCR,01/01/22 - 12/31/22,317,Click the compass to find out!,https://www.google.com/maps/dir/?api=1,South Cotabato Region 12 General Santos City Dr. Jorge P. Royeca Hospital,6.1257414,125.1856488
Region 12,Sultan Kudarat,Tacurong City,St. Louis Molecular Diagnostic Laboratory,PRIVATE,rRT PCR,01/01/22 - 12/31/22,318,Click the compass to find out!,https://www.google.com/maps/dir/?api=1,Sultan Kudarat Region 12 Tacurong City St. Louis Molecular Diagnostic Laboratory,6.6654138,124.6912612
Region 12,Sultan Kudarat,Tacurong City,Tomboc-Salayog Hospital,PRIVATE,rRT PCR,01/01/22 - 12/31/22,319,Click the compass to find out!,https://www.google.com/maps/dir/?api=1,Sultan Kudarat Region 12 Tacurong City Tomboc-Salayog Hospital,6.6938147,124.7015616
Region 12,Cotabato,Municipality of M'lang,Mlang District Hospital,PUBLIC,rRT PCR,01/01/22 - 12/31/22,320,Click the compass to find out!,https://www.google.com/maps/dir/?api=1,Cotabato Region 12 Municipality of M'lang Mlang District Hospital,6.9480633,124.8787882
Region 12,North Cotabato,Kidapawan City,Kidapawan City Molecular Laboratory,PUBLIC,rRT PCR,12/31/22,321,Click the compass to find out!,https://www.google.com/maps/dir/?api=1,North Cotabato Region 12 Kidapawan City Kidapawan City Molecular Laboratory,7.010607,125.0911341
Region 12,North Cotabato,Kidapawan City,Excellab Diagnostic Center,PRIVATE,rRT PCR,12/31/22,322,Click the compass to find out!,https://www.google.com/maps/dir/?api=1,North Cotabato Region 12 Kidapawan City Excellab Diagnostic Center,7.0222479,125.0899117
CARAGA,Agusan Del Norte,Butuan City,Butuan Medical Center,PUBLIC,Cartridge - Based PCR,01/01/22 - 12/31/22,323,Click the compass to find out!,https://www.google.com/maps/dir/?api=1,Agusan Del Norte CARAGA Butuan City Butuan Medical Center,8.9619431,125.5860993
CARAGA,Agusan Del Norte,Butuan City,Butuan Medical Center,PUBLIC,rRT PCR,01/01/22 - 12/31/22,324,Click the compass to find out!,https://www.google.com/maps/dir/?api=1,Agusan Del Norte CARAGA Butuan City Butuan Medical Center,8.9619431,125.5860993
CARAGA,Agusan Del Norte,Butuan City,Manuel J. Santos Hospital,PRIVATE,Cartridge - Based PCR,01/01/22 - 12/31/22,325,Click the compass to find out!,https://www.google.com/maps/dir/?api=1,Agusan Del Norte CARAGA Butuan City Manuel J. Santos Hospital,8.947095,125.540835
CARAGA,Surigao Del Norte,Surigao City,CARAGA Regional Hospital,PUBLIC,Cartridge - Based PCR,01/01/22 - 12/31/22,326,Click the compass to find out!,https://www.google.com/maps/dir/?api=1,Surigao Del Norte CARAGA Surigao City CARAGA Regional Hospital,9.784373,125.490032
CARAGA,Surigao Del Norte,Surigao City,Philippine Red Cross Molecular Laboratory,PRIVATE,rRT PCR,01/01/22 - 12/31/22,327,Click the compass to find out!,https://www.google.com/maps/dir/?api=1,Surigao Del Norte CARAGA Surigao City Philippine Red Cross Molecular Laboratory,9.7916349,125.4945718
CARAGA,Agusan Del Sur,Municipality of Prosperidad,Democrito O. Plaza Memorial Hospital,PUBLIC,rRT PCR,01/01/22 - 12/31/22,328,Click the compass to find out!,https://www.google.com/maps/dir/?api=1,Agusan Del Sur CARAGA Municipality of Prosperidad Democrito O. Plaza Memorial Hospital,8.5471444,125.9437533
CARAGA,Surigao Del Sur,Tandag City,Adela Serra TY Memorial Center,PUBLIC,rRT PCR,01/01/22 - 12/31/22,329,Click the compass to find out!,https://www.google.com/maps/dir/?api=1,Surigao Del Sur CARAGA Tandag City Adela Serra TY Memorial Center,9.0685504,126.1903864
CAR,Benguet,Baguio City,Baguio General Hospital Medical Center (BGHMC),PUBLIC,rRT PCR,01/01/22 - 12/31/22,330,Click the compass to find out!,https://www.google.com/maps/dir/?api=1,Benguet CAR Baguio City Baguio General Hospital Medical Center (BGHMC),16.4010571,120.5948463
CAR,Benguet,Baguio City,Parkway Medical and Diagnostic Center,PRIVATE,rRT PCR,01/01/22 - 12/31/22,331,Click the compass to find out!,https://www.google.com/maps/dir/?api=1,Benguet CAR Baguio City Parkway Medical and Diagnostic Center,16.3953663,120.5901171
CAR,Mountain Province,Municipality of Bauko,Luis Hora Memorial Regional Hospital,PUBLIC,rRT PCR,01/01/22 - 12/31/22,332,Click the compass to find out!,https://www.google.com/maps/dir/?api=1,Mountain Province CAR Municipality of Bauko Luis Hora Memorial Regional Hospital,16.9810322,120.8537722
CAR,Benguet,Municipality of La Trinidad,Benguet General Hospital,PUBLIC,rRT PCR,01/01/22 - 12/31/22,333,Click the compass to find out!,https://www.google.com/maps/dir/?api=1,Benguet CAR Municipality of La Trinidad Benguet General Hospital,16.4507651,120.5891329
CAR,Calinga,Tabuk City,Tabuk City Covid-19 RT-PCR Testing Laboratory,PUBLIC,rRT PCR,01/01/22 - 12/31/22,334,Click the compass to find out!,https://www.google.com/maps/dir/?api=1,Calinga CAR Tabuk City Tabuk City Covid-19 RT-PCR Testing Laboratory,17.4468537,121.5264411
CAR,Benguet,Baguio City,Notre Dame De Chartres Hospital,PRIVATE,rRT PCR,12/31/22,335,Click the compass to find out!,https://www.google.com/maps/dir/?api=1,Benguet CAR Baguio City Notre Dame De Chartres Hospital,16.4154501,120.598656
BARMM,Lanao Del Sur,Marawi City,Amai Pakpak Medical Center,PUBLIC,rRT PCR,01/01/22 - 12/31/22,336,Click the compass to find out!,https://www.google.com/maps/dir/?api=1,Lanao Del Sur BARMM Marawi City Amai Pakpak Medical Center,8.0044554,124.2838236
BARMM,Lanao Del Sur,Marawi City,Amai Pakpak Medical Center,PUBLIC,Cartridge - Based PCR,01/01/22 - 12/31/22,337,Click the compass to find out!,https://www.google.com/maps/dir/?api=1,Lanao Del Sur BARMM Marawi City Amai Pakpak Medical Center,8.0044554,124.2838236
BARMM,Maguindanao,Cotabato City,Philippine Red Cross Cotabato City - Maguindanao Molecular Laboratory,PRIVATE,rRT PCR,01/01/22 - 12/31/22,338,Click the compass to find out!,https://www.google.com/maps/dir/?api=1,Maguindanao BARMM Cotabato City Philippine Red Cross Cotabato City - Maguindanao Molecular Laboratory,7.22134,124.243786
BARMM,Maguindanao,Municipality of Ampatuan,Maguindanao Provincial Hospital,PUBLIC,rRT PCR,12/31/22,339,Click the compass to find out!,https://www.google.com/maps/dir/?api=1,Maguindanao BARMM Municipality of Ampatuan Maguindanao Provincial Hospital,6.793361,124.4682746
