index,actual_name,mapping_address,lat,lng,email,medical_director,contact,current_distance,gmaps_url
1,BANGUI DISTRICT HOSPITAL,"BANGUI DISTRICT HOSPITAL, ILOCOS, ILOCOS NORTE",18.5334207,120.7618443,banguidh@gmail. com,"Dr. Elvin Chester S. Alcoriza, MHA",077-676-1158,Click the compass to find out!,https://www.google.com/maps/dir/?api=1
2,MARIANO MARCOS MEMORIAL HOSPITAL AND MEDICAL CENTER,"MARIANO MARCOS MEMORIAL HOSPITAL AND MEDICAL CENTER, ILOCOS, ILOCOS NORTE",18.0604061,120.5591422,mmmh_doh@yah oo.com,Dr. Maria Lourdes K. Otayza,"077-
7923144/6008000",Click the compass to find out!,https://www.google.com/maps/dir/?api=2
3,LAOAG CITY GENERAL HOSPITAL,"LAOAG CITY GENERAL HOSPITAL, ILOCOS, ILOCOS NORTE, Laoag City",18.1883839,120.577455,lcgh_lc@yahoo.c om,Dr. Eliezer John P. Asuncion,077-670-6304,Click the compass to find out!,https://www.google.com/maps/dir/?api=3
4,GOV. ROQUE B. ABLAN SR. MEMORIAL HOSPITAL,"GOV. ROQUE B. ABLAN SR. MEMORIAL HOSPITAL, ILOCOS, ILOCOS NORTE, Laoag City",18.1993459,120.6014423,pho_grbasmh@ya hoo.com,Dr. Roger G. Braceros,"077-
7731770/7720303",Click the compass to find out!,https://www.google.com/maps/dir/?api=4
5,ILOCOS SUR DISTRICT HOSPITAL - BESSANG PASS CERVANTES,"ILOCOS SUR DISTRICT HOSPITAL - BESSANG PASS CERVANTES, ILOCOS, ILOCOS SUR",16.9569444,120.6497222,bessangpassmem orialhospital@yah oo.com,Dr.Theresa Basabas - OIC,0939-844-4341,Click the compass to find out!,https://www.google.com/maps/dir/?api=5
6,ILOCOS SUR DISTRICT HOSPITAL - NARVACAN,"ILOCOS SUR DISTRICT HOSPITAL - NARVACAN, ILOCOS, ILOCOS SUR",17.4183565,120.4697882,cisdhhospital@ya hoo.com,Dr. Ronald Remegio T. Tobias,077-604-0271,Click the compass to find out!,https://www.google.com/maps/dir/?api=6
7,ILOCOS SUR DISTRICT HOSPITAL - TAGUDIN,"ILOCOS SUR DISTRICT HOSPITAL - TAGUDIN, ILOCOS, ILOCOS SUR",16.9387501,120.4703258,tagudin_hospital @yahoo.com,Dr. Oseas Diasen,077-748-7015,Click the compass to find out!,https://www.google.com/maps/dir/?api=7
8,ILOCOS SUR DISTRICT HOSPITAL- MAGSINGAL,"ILOCOS SUR DISTRICT HOSPITAL- MAGSINGAL, ILOCOS, ILOCOS SUR",17.6893939,120.4278186,hospitalmagsinga ldistrict@yahoo.c om,Dr. Susan Seguban,77-726-3514,Click the compass to find out!,https://www.google.com/maps/dir/?api=8
9,ILOCOS SUR DISTRICT HOSPITAL - SINAIT,"ILOCOS SUR DISTRICT HOSPITAL - SINAIT, ILOCOS, ILOCOS SUR",17.8543394,120.4547761,"isdhsinait@yahoo
.com.ph",Dr. Bernardino De Gracia III,77-728-8094,Click the compass to find out!,https://www.google.com/maps/dir/?api=9
10,ILOCOS SUR DISTRICT HOSPITAL - STA. LUCIA,"ILOCOS SUR DISTRICT HOSPITAL - STA. LUCIA, ILOCOS, ILOCOS SUR",17.1512894,120.5385544,staluciadistrictho spital@yahoo.co m,Dr. Leticia G. de Vera,"0920-914-1967;
0919-625-1663",Click the compass to find out!,https://www.google.com/maps/dir/?api=10
11,CITY OF CANDON HOSPITAL,"CITY OF CANDON HOSPITAL, ILOCOS, ILOCOS SUR, Candon City",17.1847357,120.4455135,cityofcandonhosp ital@yahoo.com,Dr. Archimedes Mercado,077-7425675,Click the compass to find out!,https://www.google.com/maps/dir/?api=11
12,ILOCOS SUR PROVINCIAL HOSPITAL GABRIELA SILANG,"ILOCOS SUR PROVINCIAL HOSPITAL GABRIELA SILANG, ILOCOS, ILOCOS SUR, Vigan City",17.5535027,120.3797408,pho_gabriela@ya hoo.com.ph,Dr. Trina Tabboga- Talaga,"077-
7227339/7227099
6741309/6741192
loc 109",Click the compass to find out!,https://www.google.com/maps/dir/?api=12
13,BACNOTAN DISTRICT HOSPITAL,"BACNOTAN DISTRICT HOSPITAL, ILOCOS, LA UNION",16.7253771,120.3509459,bdh_bacnotan@y ahoo.com,Dr. Zenserly D. Pagaduan,072-607-4044,Click the compass to find out!,https://www.google.com/maps/dir/?api=13
14,BALAOAN DISTRICT HOSPITAL,"BALAOAN DISTRICT HOSPITAL, ILOCOS, LA UNION",16.7762214,120.4125226,bldh_balaoan@ya hoo.com,Dr. Mark Anthony S. Tomboc,072-603-0280,Click the compass to find out!,https://www.google.com/maps/dir/?api=14
15,CABA DISTRICT HOSPITAL,"CABA DISTRICT HOSPITAL, ILOCOS, LA UNION",16.4474302,120.378138,cmch_lu1974@ya hoo.com,Dr. Gretchen F. Aromin,072-607-0633,Click the compass to find out!,https://www.google.com/maps/dir/?api=15
16,NAGUILIAN DISTRICT HOSPITAL,"NAGUILIAN DISTRICT HOSPITAL, ILOCOS, LA UNION",16.5296753,120.3916891,naguilian.district. hospital@gmail.c om,Dr. Eleanor G. Dacanay,072-609-1018,Click the compass to find out!,https://www.google.com/maps/dir/?api=16
17,ROSARIO DISTRICT HOSPITAL,"ROSARIO DISTRICT HOSPITAL, ILOCOS, LA UNION",16.2248302,120.4730935,rdh_rosariolaunio n@yahoo.com,Dr. Fidel M. Mabalot,"687-0456 / 687-
9988",Click the compass to find out!,https://www.google.com/maps/dir/?api=17
18,LA UNION MEDICAL CENTER,"LA UNION MEDICAL CENTER, ILOCOS, LA UNION",16.346667,120.364038,launionmedicalce nter@ymail.com,Dr. Glenn Ernest M. Fonbuena,"072-6075541-
45/6075938/6075
938",Click the compass to find out!,https://www.google.com/maps/dir/?api=18
19,ILOCOS TRAINING AND REGIONAL MEDICAL CENTER,"ILOCOS TRAINING AND REGIONAL MEDICAL CENTER, ILOCOS, LA UNION, San Fernando City",16.5912317,120.3178203,"itrmc2010@yahoo
.com",Dr. Eduardo M. Badua III,"072-
8883671/6076418
/6076422/072607 64",Click the compass to find out!,https://www.google.com/maps/dir/?api=19
20,ASINGAN COMMUNITY HOSPITAL,"ASINGAN COMMUNITY HOSPITAL, ILOCOS, PANGASINAN",16.0168366,120.6747201,asinhosp@yahoo. com,Dr. Ferdinand A. Totaan,75-563-2934,Click the compass to find out!,https://www.google.com/maps/dir/?api=20
21,BAYAMBANG DISTRICT HOSPITAL,"BAYAMBANG DISTRICT HOSPITAL, ILOCOS, PANGASINAN",15.8086977,120.443471,bayambang_distri cthospital80@yah oo.com,Dr. Athena Marie C. Merrera,75-592-2958,Click the compass to find out!,https://www.google.com/maps/dir/?api=21
22,BOLINAO COMMUNITY HOSPITAL,"BOLINAO COMMUNITY HOSPITAL, ILOCOS, PANGASINAN",16.2678271,119.878842,bolinao_c_h@ym ail.com,Dr. Genevieve S. Rivera,6.39E+11,Click the compass to find out!,https://www.google.com/maps/dir/?api=22
23,DASOL COMMUNITY HOSPITAL,"DASOL COMMUNITY HOSPITAL, ILOCOS, PANGASINAN",15.9619067,119.8939276,dasolcommunityh ospital@gmail.co m,Dr. Eugenie E. Guiang,xxx,Click the compass to find out!,https://www.google.com/maps/dir/?api=23
24,EASTERN PANGASINAN DISTRICT HOSPITAL,"EASTERN PANGASINAN DISTRICT HOSPITAL, ILOCOS, PANGASINAN",16.0195269,120.7423589,epdh_tayug@yah oo.com,"Dr. David Ben E. Gurion, FPPS",(075) 572-43-39,Click the compass to find out!,https://www.google.com/maps/dir/?api=24
25,LINGAYEN DISTRICT HOSPITAL,"LINGAYEN DISTRICT HOSPITAL, ILOCOS, PANGASINAN",16.0183339,120.2293324,ldh_pang@yahoo. com,Dr. Cipriano C. Fernandez,075-542-2295,Click the compass to find out!,https://www.google.com/maps/dir/?api=25
26,MANAOAG COMMUNITY HOSPITAL,"MANAOAG COMMUNITY HOSPITAL, ILOCOS, PANGASINAN",16.036129,120.483128,manaoagcommun ityhospital2013@y ahoo.com.ph,Dr. Donn P. Doria,075-519-4833,Click the compass to find out!,https://www.google.com/maps/dir/?api=26
27,MANGATAREM DISTRICT HOSPITAL,"MANGATAREM DISTRICT HOSPITAL, ILOCOS, PANGASINAN",15.742149,120.3257063,mangataremdistri cthospital@gmail. com,Dr. Nario G. Ferrer,xxx,Click the compass to find out!,https://www.google.com/maps/dir/?api=27
28,MAPANDAN COMMUNITY HOSPITAL,"MAPANDAN COMMUNITY HOSPITAL, ILOCOS, PANGASINAN",16.0245328,120.4564081,mapandancom mhosp@yaho o.com,Dr. Pablito G. Banta,075-632-0491,Click the compass to find out!,https://www.google.com/maps/dir/?api=28
29,POZORRUBIO COMMUNITY HOSPITAL,"POZORRUBIO COMMUNITY HOSPITAL, ILOCOS, PANGASINAN",16.1066717,120.5401737,pozmunhospital@ gmail.com,Dr. Alfredo Sy,075-632-3978,Click the compass to find out!,https://www.google.com/maps/dir/?api=29
30,UMINGAN COMMUNITY HOSPITAL,"UMINGAN COMMUNITY HOSPITAL, ILOCOS, PANGASINAN",15.9275595,120.8398001,uminganch@yaho o.com,Dr. Julian B. Rose Jr.,075-576-5033,Click the compass to find out!,https://www.google.com/maps/dir/?api=30
31,WESTERN PANGASINAN DISTRICT HOSPITAL,"WESTERN PANGASINAN DISTRICT HOSPITAL, ILOCOS, PANGASINAN, Alaminos City",16.1654429,119.9861576,wpdhalaminosne w@yahoo.com,Dr. Edgardo C. Espinosa,075-632-3810,Click the compass to find out!,https://www.google.com/maps/dir/?api=31
32,REGION I MEDICAL CENTER,"REGION I MEDICAL CENTER, ILOCOS, PANGASINAN, Dagupan City",16.0485481,120.3415708,"region1mc@gmail
.com",Dr. Joseph Roland O. Mejia,"075-
5158916/5158901",Click the compass to find out!,https://www.google.com/maps/dir/?api=32
33,PANGASINAN PROVINCIAL HOSPITAL,"PANGASINAN PROVINCIAL HOSPITAL, ILOCOS, PANGASINAN, San Carlos City",15.954235,120.349795,pphscgh@yahoo. com,Dr. Aurelio O. Cariño,075-5322603,Click the compass to find out!,https://www.google.com/maps/dir/?api=33
34,URDANETA DISTRICT HOSPITAL,"URDANETA DISTRICT HOSPITAL, ILOCOS, PANGASINAN, Urdaneta City",15.973811,120.5779407,urdanetadistricth ospital@gmail.co m,Dr. Maria Vivian A. Villar-Espino,636-0690,Click the compass to find out!,https://www.google.com/maps/dir/?api=34
35,BATANES GENERAL HOSPITAL,"BATANES GENERAL HOSPITAL, CAGAYAN VALLEY, BATANES",20.4500864,121.9704646,com bataneshospital@ gmail.com,Dr. Jeffrey Antony T. Canceran,xxx,Click the compass to find out!,https://www.google.com/maps/dir/?api=35
36,ALFONSO PONCE ENRILE MEMORIAL DISTRICT HOSPITAL,"ALFONSO PONCE ENRILE MEMORIAL DISTRICT HOSPITAL, , ",18.2577872,121.9968945,rowenamartina.si on@yahoo.com apemd_hospital_g onzaga@yahoo.c om,Dr. Rowena Martina C. Sion,xxx,Click the compass to find out!,https://www.google.com/maps/dir/?api=36
37,APARRI PROVINCIAL HOSPITAL,"APARRI PROVINCIAL HOSPITAL, CAGAYAN VALLEY, CAGAYAN",18.3568451,121.6419871,adh.ph@yahoo.co m aparridistricthosp ital@gmail.com,Dr. Raymond Q. Ruiz,(078) 377-3207,Click the compass to find out!,https://www.google.com/maps/dir/?api=37
38,BALLESTEROS DISTRICT HOSPITAL,"BALLESTEROS DISTRICT HOSPITAL, CAGAYAN VALLEY, CAGAYAN",18.417719,121.5010683,bdhplgu@ymail.c om ballesterosdistrict hospital@gmail.c om,Dr. Wilson U. Barcena,(078) 255-0997,Click the compass to find out!,https://www.google.com/maps/dir/?api=38
39,LASAM DISTRICT HOSPITAL,"LASAM DISTRICT HOSPITAL, CAGAYAN VALLEY, CAGAYAN",18.0634751,121.6096294,lasamdistricthosp ital@yahoo.com,Dr. Rogil P. Peralta,xxx,Click the compass to find out!,https://www.google.com/maps/dir/?api=39
40,MATILDE A. OLIVAS DISTRICT HOSPITAL,"MATILDE A. OLIVAS DISTRICT HOSPITAL, CAGAYAN VALLEY, CAGAYAN",18.2411457,121.6835419,matildeaolivas@y ahoo.com,Dr. Deo A. Ragonjan,(078) 377-1041,Click the compass to find out!,https://www.google.com/maps/dir/?api=40
41,NUESTRA SEÑORA DE PIAT DISTRICT HOSPITAL,"NUESTRA SEÑORA DE PIAT DISTRICT HOSPITAL, CAGAYAN VALLEY, CAGAYAN",17.7755594,121.501408,nspdh01@yahoo. com,Dr. Presentacion R. Nolasco,xxx,Click the compass to find out!,https://www.google.com/maps/dir/?api=41
42,TUAO DISTRICT HOSPITAL,"TUAO DISTRICT HOSPITAL, CAGAYAN VALLEY, CAGAYAN",17.750084,121.4516124,tdh_pgoc@yahoo. com,"Dr. Nicasio M. Galano, Jr.",(078) 255-0997,Click the compass to find out!,https://www.google.com/maps/dir/?api=42
43,TUGUEGARAO CITY PEOPLE'S GENERAL HOSPITAL,"TUGUEGARAO CITY PEOPLE'S GENERAL HOSPITAL, CAGAYAN VALLEY, CAGAYAN, Tuguegarao City",17.6129589,121.7295262,tuguegaraocityPG H@yahoo.com,Dr. Marcos M. Mallillin,"(078) 844-1337
(078) 373- 1125",Click the compass to find out!,https://www.google.com/maps/dir/?api=43
44,CAGAYAN VALLEY MEDICAL CENTER,"CAGAYAN VALLEY MEDICAL CENTER, CAGAYAN VALLEY, CAGAYAN, Tuguegarao City",17.6565673,121.7466281,cvmcr2@gmail.co m,Dr. Glenn Mathew G. Baggao,"078-3020000 /
3043789",Click the compass to find out!,https://www.google.com/maps/dir/?api=44
45,ECHAGUE DISTRICT HOSPITAL,"ECHAGUE DISTRICT HOSPITAL, CAGAYAN VALLEY, ISABELA",16.6897496,121.6436616,echague_districth ospital@yahoo.co m,Dr. Rhoda Jacquelyn P. Gaffud,(078) 305-9088,Click the compass to find out!,https://www.google.com/maps/dir/?api=45
46,GOVERNOR FAUSTINO N. DY SR. MEMORIAL HOSPITAL,"GOVERNOR FAUSTINO N. DY SR. MEMORIAL HOSPITAL, CAGAYAN VALLEY, ISABELA",17.132186,121.868816,gfndsmh@yahoo. com.ph,Dr. Nelson P. Paguirigan,"(078) 624-1295
(078) 624-1688
(078) 624-1734",Click the compass to find out!,https://www.google.com/maps/dir/?api=46
47,MANUEL A. ROXAS DISTRICT HOSPITAL,"MANUEL A. ROXAS DISTRICT HOSPITAL, CAGAYAN VALLEY, ISABELA",17.0855287,121.6176029,mardh_rxs@yaho o.com.ph,Dr. Edencita R. Paguirigan,(078) 642-0152,Click the compass to find out!,https://www.google.com/maps/dir/?api=47
48,SAN MARIANO COMMUNITY HOSPITAL,"SAN MARIANO COMMUNITY HOSPITAL, CAGAYAN VALLEY, ISABELA",16.9840274,122.0012141,sanmariano_com munityhospital@y ahoo.com jcs915@yahoo.co m,Dr. Jesus C. Salvador,xxx,Click the compass to find out!,https://www.google.com/maps/dir/?api=48
49,MILAGROS ALBANO DISTRICT HOSPITAL,"MILAGROS ALBANO DISTRICT HOSPITAL, CAGAYAN VALLEY, ISABELA",16.9753758,121.8107079,madh_cabagan@y ahoo.com,Dr. Arlene M. Lazaro,(078) 325-2069,Click the compass to find out!,https://www.google.com/maps/dir/?api=49
50,PROSPERO G. BELLO INTEGRATED COMMUNITY HOSPITAL,"PROSPERO G. BELLO INTEGRATED COMMUNITY HOSPITAL, CAGAYAN VALLEY, ISABELA",16.5695633,121.6987474,pgbich_jones@ya hoo.com,Dr. Joanna Michelle A. Uy,xxx,Click the compass to find out!,https://www.google.com/maps/dir/?api=50
51,CAUAYAN DISTRICT HOSPITAL,"CAUAYAN DISTRICT HOSPITAL, CAGAYAN VALLEY, ISABELA, Cauayan City",16.9185932,121.7683614,cdh_isabela@yah oo.com,Dr. Herrison O. Alejandro,(078) 260-1120,Click the compass to find out!,https://www.google.com/maps/dir/?api=51
52,CITY OF ILAGAN MEDICAL CENTER (new),"CITY OF ILAGAN MEDICAL CENTER (new), CAGAYAN VALLEY, ISABELA, City of Ilagan",17.1381186,121.8734492,xxx@gmail.com,Dr. Herbee M. Barrios,xxx,Click the compass to find out!,https://www.google.com/maps/dir/?api=52
53,SOUTHERN ISABELA MEDICAL CENTER,"SOUTHERN ISABELA MEDICAL CENTER, CAGAYAN VALLEY, ISABELA, Santiago City",16.680089,121.546748,southern_isabela @yahoo.com,"Dr. Jose Ildefonso B. Costales, Jr.",078-3050459,Click the compass to find out!,https://www.google.com/maps/dir/?api=53
54,MADDELA DISTRICT HOSPITAL,"MADDELA DISTRICT HOSPITAL, CAGAYAN VALLEY, QUIRINO",16.3286801,121.6589478,"maddeladistrictho spital@yahoo.co
m.ph",Dr. Ronaldo E. Sanchez,xxx,Click the compass to find out!,https://www.google.com/maps/dir/?api=54
55,QUIRINO PROVINCE MEDICAL CENTER,"QUIRINO PROVINCE MEDICAL CENTER, CAGAYAN VALLEY, QUIRINO",16.5149657,121.5378159,"qphhealth@yahoo
.com",Dr. Robert T. Baguioen,xxx,Click the compass to find out!,https://www.google.com/maps/dir/?api=55
56,DUPAX DISTRICT HOSPITAL,"DUPAX DISTRICT HOSPITAL, CAGAYAN VALLEY, NUEVA VIZCAYA",16.3069594,121.1009002,dupaxdistricthosp ital@gmail.com,Dr. Edward B. Gines,xxx,Click the compass to find out!,https://www.google.com/maps/dir/?api=56
57,LT. TIDANG MEMORIAL HOSPITAL,"LT. TIDANG MEMORIAL HOSPITAL, CAGAYAN VALLEY, NUEVA VIZCAYA",16.3616919,120.8887911,lt.tidangmemorial hospital2003@gm ail.com crismagallanes28 @yahoo.com,Dr. Cristopher G. Magallanes II,xxx,Click the compass to find out!,https://www.google.com/maps/dir/?api=57
58,NUEVA VIZCAYA PROVINCIAL HOSPITAL,"NUEVA VIZCAYA PROVINCIAL HOSPITAL, CAGAYAN VALLEY, NUEVA VIZCAYA",16.3703013,121.0995166,rlnjara@yahoo.co m nvprovhospital_0 5.2006@yahoo.co m.ph,Dr. Arlene I. Jara,(078) 808-0142,Click the compass to find out!,https://www.google.com/maps/dir/?api=58
59,REGION II TRAUMA AND MEDICAL CENTER,"REGION II TRAUMA AND MEDICAL CENTER, CAGAYAN VALLEY, NUEVA VIZCAYA",16.4830758,121.1342776,galindezcirilo114 @gmail.com,Dr. Napoleon A. Obana,"078-8053561 to
64",Click the compass to find out!,https://www.google.com/maps/dir/?api=59
60,AURORA MEMORIAL HOSPITAL,"AURORA MEMORIAL HOSPITAL, CENTRAL LUZON, AURORA",15.7611892,121.5619103,xxx@gmail.com,Dr. Vladimir Enriquez,xxx,Click the compass to find out!,https://www.google.com/maps/dir/?api=60
61,JOSE C. PAYUMO JR. MEMORIAL HOSPITAL,"JOSE C. PAYUMO JR. MEMORIAL HOSPITAL, CENTRAL LUZON, BATAAN",14.865328,120.4609135,g_abara@yahoo.c om,Dr. Gena A. Abarra,(047) 481-1724,Click the compass to find out!,https://www.google.com/maps/dir/?api=61
62,MARIVELES DISTRICT HOSPITAL,"MARIVELES DISTRICT HOSPITAL, CENTRAL LUZON, BATAAN",14.4381322,120.4984217,mdh@bataan.gov. ph,Dr. Hector T. Santos,(047)612-2335,Click the compass to find out!,https://www.google.com/maps/dir/?api=62
63,ORANI DISTRICT HOSPITAL,"ORANI DISTRICT HOSPITAL, CENTRAL LUZON, BATAAN",14.7900589,120.5354456,odhbataan@yaho o.com,Dr. Hector T. Santos,(047) 237-0757,Click the compass to find out!,https://www.google.com/maps/dir/?api=63
64,"BATAAN GENERAL HOSPITAL
AND MEDICAL CENTER ( formerly BATAAN PROVINCIAL HOSPITAL)","BATAAN GENERAL HOSPITAL
AND MEDICAL CENTER ( formerly BATAAN PROVINCIAL HOSPITAL), CENTRAL LUZON, BATAAN, Balanga City",14.6785305,120.5304283,bgh_bataan2005@ yahoo.com,"Dr. Glory V. Baltazar, Mph, Mha, Cese, Medical Center Chief","047-2371274 loc
210",Click the compass to find out!,https://www.google.com/maps/dir/?api=64
65,BALIUAG  DISTRICT HOSPITAL,"BALIUAG  DISTRICT HOSPITAL, CENTRAL LUZON, BULACAN",14.9742417,120.8945181,baliuagdistrict@y ahoo.com,Dr. Angelito D. Trinidad,"(044) 766-2364/
2338",Click the compass to find out!,https://www.google.com/maps/dir/?api=65
66,CALUMPIT DISTRICT HOSPITAL,"CALUMPIT DISTRICT HOSPITAL, CENTRAL LUZON, BULACAN",14.907497,120.771085,"cdh@bulacan.gov
.ph",Dr. Marietta M. Katipunan,(044) 202-4415,Click the compass to find out!,https://www.google.com/maps/dir/?api=66
67,EMILIO G. PEREZ MEMORIAL HOSPITAL,"EMILIO G. PEREZ MEMORIAL HOSPITAL, CENTRAL LUZON, BULACAN",14.83669,120.733577,egpdh@yahoo.co m,Dr. Gerardo C. Morales,044 794 4370,Click the compass to find out!,https://www.google.com/maps/dir/?api=67
68,GREGORIO DEL PILAR DISTRICT HOSPITAL,"GREGORIO DEL PILAR DISTRICT HOSPITAL, CENTRAL LUZON, BULACAN",14.792852,120.8798932,gdpdh@bulacan.g ov.ph,Dr. Roselle J. Acob,(044) 760 3088,Click the compass to find out!,https://www.google.com/maps/dir/?api=68
69,NORZAGARAY MUNICIPAL HOSPITAL,"NORZAGARAY MUNICIPAL HOSPITAL, CENTRAL LUZON, BULACAN",14.9041856,121.0420654,joselitocsantiago @yahoo.com,Dr. Joselito C. Santiago,0927-2444-555,Click the compass to find out!,https://www.google.com/maps/dir/?api=69
70,OSPITAL NG GUIGUINTO,"OSPITAL NG GUIGUINTO, CENTRAL LUZON, BULACAN",14.8349859,120.8912519,"ospitalgto@gmail.
com",Dr. Caesar H. Mejia,(044) 760-7776,Click the compass to find out!,https://www.google.com/maps/dir/?api=70
71,ROGACIANO M. MERCADO MEMORIAL HOSPITAL,"ROGACIANO M. MERCADO MEMORIAL HOSPITAL, CENTRAL LUZON, BULACAN",14.818849,120.959761,rmmmh@bulacan. gov.ph,Dr. David Ranland M. Domingo,044 641 3038,Click the compass to find out!,https://www.google.com/maps/dir/?api=71
72,SAN MIGUEL DISTRICT HOSPITAL,"SAN MIGUEL DISTRICT HOSPITAL, CENTRAL LUZON, BULACAN",15.1366732,120.9657745,sanmiguel_distric thospital@yahoo. com,Dr. Edwin P. Tecson,"(044) 678-2070/
764-0130",Click the compass to find out!,https://www.google.com/maps/dir/?api=72
73,BULACAN MEDICAL CENTER,"BULACAN MEDICAL CENTER, CENTRAL LUZON, BULACAN, Malolos City",14.8586047,120.8169218,pho_bulacan@ya hoo.com,Dr. Hjordis Marushka B. Celis,044-7910630,Click the compass to find out!,https://www.google.com/maps/dir/?api=73
74,OSPITAL NG LUNGSOD NG SAN JOSE DEL MONTE,"OSPITAL NG LUNGSOD NG SAN JOSE DEL MONTE, CENTRAL LUZON, BULACAN, San Jose del Monte City",14.8544045,121.0573173,evelynbrigino@ya hoo.com,Dr. Catherine Misoles Beltran,(044) 905- 2682/280,Click the compass to find out!,https://www.google.com/maps/dir/?api=74
75,BONGABON DISTRICT HOSPITAL,"BONGABON DISTRICT HOSPITAL, CENTRAL LUZON, NUEVA ECIJA",15.6209239,121.1476684,bongabondistrict hospital - ne@y.c.ph,Dr. Gloria Borre- Unciano,xxx,Click the compass to find out!,https://www.google.com/maps/dir/?api=75
76,TALAVERA GENERAL HOSPITAL (DR. PJGMRMC TALAVERA EXTENSION HOSPITAL),"TALAVERA GENERAL HOSPITAL (DR. PJGMRMC TALAVERA EXTENSION HOSPITAL), CENTRAL LUZON, NUEVA ECIJA",15.584408,120.919953,teh_talavera@yah oo.com,Dr. Ma. Isabel S. Gallardo,044 940 7990,Click the compass to find out!,https://www.google.com/maps/dir/?api=76
77,GAPAN DISTRICT HOSPITAL,"GAPAN DISTRICT HOSPITAL, CENTRAL LUZON, NUEVA ECIJA",15.2911537,120.9507918,gapandistricthosp ital@gmail.com,"Dr. Antonio G. Duque, OIC",044 958 4834,Click the compass to find out!,https://www.google.com/maps/dir/?api=77
78,GUIMBA DISTRICT HOSPITAL,"GUIMBA DISTRICT HOSPITAL, CENTRAL LUZON, NUEVA ECIJA",15.6911188,120.7264033,guimbadistricthos pital@yahoo.com or @y.c,Dr. Nenita S. San Jose,0922 840 2628,Click the compass to find out!,https://www.google.com/maps/dir/?api=78
79,SAN ANTONIO DISTRICT HOSPITAL,"SAN ANTONIO DISTRICT HOSPITAL, CENTRAL LUZON, NUEVA ECIJA",15.3218327,120.8785987,sanantoniodistrict hospital@yahoo.c om,Dr. Adora H. Cruz,044- 333 3313,Click the compass to find out!,https://www.google.com/maps/dir/?api=79
80,STO. DOMINGO DISTRICT HOSPITAL,"STO. DOMINGO DISTRICT HOSPITAL, CENTRAL LUZON, NUEVA ECIJA",15.5915351,120.8755526,stodomingodistric thospital@yahoo. com,Dr. Darwin S. Panahon,xxx,Click the compass to find out!,https://www.google.com/maps/dir/?api=80
81,E.L. JOSON MEMORIAL HOSPITAL,"E.L. JOSON MEMORIAL HOSPITAL, CENTRAL LUZON, NUEVA ECIJA, Cabanatuan City",15.5044444,120.9744006,eljmemorialhospit al@gmail.com,"Dr. Augusto F. Abeleda, Jr.",(044) 600-5233,Click the compass to find out!,https://www.google.com/maps/dir/?api=81
82,MV GALLEGO CABANATUAN CITY GENERAL HOSPITAL,"MV GALLEGO CABANATUAN CITY GENERAL HOSPITAL, CENTRAL LUZON, NUEVA ECIJA, Cabanatuan City",15.4762261,120.9579215,mvgccgh01@yaho o.com,Dr. Benedicto S. Joson Jr.,(044) 958-9773,Click the compass to find out!,https://www.google.com/maps/dir/?api=82
83,DR. PAULINO J. GARCIA MEMORIAL RESEARCH & MEDICAL CENTER,"DR. PAULINO J. GARCIA MEMORIAL RESEARCH & MEDICAL CENTER, CENTRAL LUZON, NUEVA ECIJA, Cabanatuan City",15.489271,120.9727529,dr_hubertolapuz @yahoo.com,Dr. Huberto F. Lapuz,044-4639937,Click the compass to find out!,https://www.google.com/maps/dir/?api=83
84,SAN JOSE CITY GENERAL HOSPITAL,"SAN JOSE CITY GENERAL HOSPITAL, CENTRAL LUZON, NUEVA ECIJA, San Jose City",15.807488,120.999896,sanjosegenhosp @yahoo.com,Dr. Joseph L. Navallo,(044) 511-3087,Click the compass to find out!,https://www.google.com/maps/dir/?api=84
85,OSPITAL NG LUNGSOD NG SAN JOSE,"OSPITAL NG LUNGSOD NG SAN JOSE, CENTRAL LUZON, NUEVA ECIJA, San Jose City",15.7917166,120.992129,olsj3121@gmail.c om,Dr. Imelda T. Cornel,044-4566671,Click the compass to find out!,https://www.google.com/maps/dir/?api=85
86,AIRFORCE CITY HOSPITAL,"AIRFORCE CITY HOSPITAL, CENTRAL LUZON, PAMPANGA",15.1822827,120.532162,AFCH2013@yaho o.com,LTC Teresita B. Nabua,"(045) 599-2014/
499-2225",Click the compass to find out!,https://www.google.com/maps/dir/?api=86
87,BASA AIRBASE HOSPITAL,"BASA AIRBASE HOSPITAL, CENTRAL LUZON, PAMPANGA",14.9796414,120.5013703,babhadwpaf@yah oo.com,LTC Alan E Romero,045 9700 299,Click the compass to find out!,https://www.google.com/maps/dir/?api=87
88,DIOSDADO P. MACAPAGAL MEMORIAL HOSPITAL,"DIOSDADO P. MACAPAGAL MEMORIAL HOSPITAL, CENTRAL LUZON, PAMPANGA",14.985462,120.6224036,dpmmhguagua@g mail.com,Dr. Fleur-De-Lis M. Zapata,(045) 900-2112,Click the compass to find out!,https://www.google.com/maps/dir/?api=88
89,DOMINGO B. FLORES DISTRICT HOSPITAL,"DOMINGO B. FLORES DISTRICT HOSPITAL, CENTRAL LUZON, PAMPANGA",15.079409,120.6199895,bethlili.hernandez @gmail.com,Dr. Rachelle Gutierrez,9165300251,Click the compass to find out!,https://www.google.com/maps/dir/?api=89
90,DR. ANDRES LUCIANO JR. MEMORIAL HOSPITAL,"DR. ANDRES LUCIANO JR. MEMORIAL HOSPITAL, CENTRAL LUZON, PAMPANGA",15.213423,120.658917,balitucandistrict@ yahoo.com,Dr. Mrirriam Sun- Arenas,"(045) 866-
0400/(045) 866-
2886",Click the compass to find out!,https://www.google.com/maps/dir/?api=90
91,DR. EMIGDIO C. CRUZ SR. MEMORIAL HOSPITAL,"DR. EMIGDIO C. CRUZ SR. MEMORIAL HOSPITAL, CENTRAL LUZON, PAMPANGA",15.1641247,120.7779365,eccsmh@gmail.co m,Dr. Alice T. Buan,(045) 885-0737,Click the compass to find out!,https://www.google.com/maps/dir/?api=91
92,ESCOLASTICA ROMERO DISTRICT HOSPITAL,"ESCOLASTICA ROMERO DISTRICT HOSPITAL, CENTRAL LUZON, PAMPANGA",14.9382594,120.598674,escolasticaromer o_hospital@yaho o.com,Dr. Zenon V. Ponce,"(045) 971-6329/
971-6395",Click the compass to find out!,https://www.google.com/maps/dir/?api=92
93,JOSE SONGCO LAPID DISTRICT HOSPITAL,"JOSE SONGCO LAPID DISTRICT HOSPITAL, CENTRAL LUZON, PAMPANGA",15.0643034,120.5486005,pdhphic@yahoo.c om,Dr. Larry M. Fernado,(045) 436- 0832/329-2929,Click the compass to find out!,https://www.google.com/maps/dir/?api=93
94,MABALACAT DISTRICT HOSPITAL,"MABALACAT DISTRICT HOSPITAL, CENTRAL LUZON, PAMPANGA",15.1925409,120.5802278,mdh_mabalacat@ yahoo.com.ph,Dr. Danilo Naguit,(045) 331-2801,Click the compass to find out!,https://www.google.com/maps/dir/?api=94
95,MEXICO COMMUNITY HOSPITAL,"MEXICO COMMUNITY HOSPITAL, CENTRAL LUZON, PAMPANGA",15.0735575,120.7193676,hilariojamesjrc@y ahoo.com,Dr. Hilario James M. Cunanan,"(045) 966- 3689/0749/3719/8
75-0020",Click the compass to find out!,https://www.google.com/maps/dir/?api=95
96,ROMANA PANGAN DISTRICT HOSPITAL,"ROMANA PANGAN DISTRICT HOSPITAL, CENTRAL LUZON, PAMPANGA",14.9901133,120.5115368,romanapangan_di strict@yahoo.com,Dr. Merlyn Bacquiran,(045) 970-0488/,Click the compass to find out!,https://www.google.com/maps/dir/?api=96
97,R.P. RODRIGUEZ MEMORIAL HOSPITAL,"R.P. RODRIGUEZ MEMORIAL HOSPITAL, CENTRAL LUZON, PAMPANGA",15.079409,120.6199895,ricardo_p_rodrigu ez_mem_hosp43 @yahoo.com,Dr. Antonio B. Ong,(045) 861-2336,Click the compass to find out!,https://www.google.com/maps/dir/?api=97
98,R.P. RODRIGUEZ MEM. HOSPITAL (ANNEX SPECIALTY HOSPITAL),"R.P. RODRIGUEZ MEM. HOSPITAL (ANNEX SPECIALTY HOSPITAL), CENTRAL LUZON, PAMPANGA",15.079409,120.6199895,rprmh.annex@yah oo.com,Dr. Jingle M. Maray,xxx,Click the compass to find out!,https://www.google.com/maps/dir/?api=98
99,SAN LUIS DISTRICT HOSPITAL,"SAN LUIS DISTRICT HOSPITAL, CENTRAL LUZON, PAMPANGA",15.0526204,120.7808107,sldhosp@yahoo.c om,Dr. Rommel Tolentino,9195101444,Click the compass to find out!,https://www.google.com/maps/dir/?api=99
100,RAFAEL LAZATIN MEMORIAL MEDICAL CENTER,"RAFAEL LAZATIN MEMORIAL MEDICAL CENTER, CENTRAL LUZON, PAMPANGA, Angeles City",15.1460099,120.5806849,ona_rlmmc@yaho o.com,Dr. Froilan Canlas,(045) 322- 4495/322-1222,Click the compass to find out!,https://www.google.com/maps/dir/?api=100
101,JOSE B. LINGAD MEMORIAL GENERAL HOSPITAL,"JOSE B. LINGAD MEMORIAL GENERAL HOSPITAL, CENTRAL LUZON, PAMPANGA, San Fernando City, Pampanga",15.0389739,120.6808826,jblmgh_2012@yah oo.com.ph,Dr. Monserrat S. Chichioco,"045-
9613544/9613437",Click the compass to find out!,https://www.google.com/maps/dir/?api=101
102,CAMP AQUINO STATION HOSPITAL,"CAMP AQUINO STATION HOSPITAL, CENTRAL LUZON, TARLAC",15.4342489,120.5987704,cashnolcom@yah oo.com,LTC Manuel Fidel M Magtira,"(045) 985-
0028/loc.3105",Click the compass to find out!,https://www.google.com/maps/dir/?api=102
103,CONCEPCION DISTRICT HOSPITAL,"CONCEPCION DISTRICT HOSPITAL, CENTRAL LUZON, TARLAC",15.329836,120.646791,CDHtarlac.city@g mail.com,Dr. Theresa M. Sablan,(045) 923- 0852/923-0642,Click the compass to find out!,https://www.google.com/maps/dir/?api=103
104,GILBERTO O. TEODORO MEMORIAL HOSPITAL,"GILBERTO O. TEODORO MEMORIAL HOSPITAL, CENTRAL LUZON, TARLAC",15.6457103,120.4124101,teodoro.gilberto@ yahoo.com,Dr. Edgardo G. Lopez,(045) 934- 0310/934-0330,Click the compass to find out!,https://www.google.com/maps/dir/?api=104
105,LA PAZ MEDICARE  AND COMMUNITY HOSPITAL,"LA PAZ MEDICARE  AND COMMUNITY HOSPITAL, CENTRAL LUZON, TARLAC",15.4754786,120.5963492,lpmch73@yahoo. com,Dr. Alvin S. Villanueva,045-611-0679,Click the compass to find out!,https://www.google.com/maps/dir/?api=105
106,PANIQUI GENERAL HOSPITAL,"PANIQUI GENERAL HOSPITAL, CENTRAL LUZON, TARLAC",15.653536,120.5856478,ltmgeneralhospita l@gmail.com,"Edgardo C. De Villa, MD",045-931-6088,Click the compass to find out!,https://www.google.com/maps/dir/?api=106
107,OSPITAL NING CAPAS,"OSPITAL NING CAPAS, CENTRAL LUZON, TARLAC",15.3457485,120.5923067,flr.md_021982@ya hoo.com.ph,"Franchette L. Reyes, MD, MHA","(045) 925- 0154/925-
0408/491-1361",Click the compass to find out!,https://www.google.com/maps/dir/?api=107
108,TARLAC PROVINCIAL HOSPITAL,"TARLAC PROVINCIAL HOSPITAL, CENTRAL LUZON, TARLAC, Tarlac City",15.4750177,120.5865725,"tarlacprovincialho spital@yahoo.co m/TARLACPROVI NCIALHOSPITAL
@yahoo.com",Dr. Gary E. Role,045-9821306,Click the compass to find out!,https://www.google.com/maps/dir/?api=108
109,CANDELARIA DISTRICT HOSPITAL,"CANDELARIA DISTRICT HOSPITAL, CENTRAL LUZON, ZAMBALES",15.6062021,119.9391801,cdhcandezambs@ yahoo.com,Dr. Eduardo D. Passi,9473045204,Click the compass to find out!,https://www.google.com/maps/dir/?api=109
110,PRESIDENT RAMON MAGSAYSAY MEMORIAL HOSPITAL,"PRESIDENT RAMON MAGSAYSAY MEMORIAL HOSPITAL, CENTRAL LUZON, ZAMBALES",15.3163109,119.9914108,pho.zambalaes@y ahoo.com,"Dr. Noel C. Bueno, Provincial Health Officer II",xxx,Click the compass to find out!,https://www.google.com/maps/dir/?api=110
111,SAN MARCELINO DISTRICT HOSPITAL,"SAN MARCELINO DISTRICT HOSPITAL, CENTRAL LUZON, ZAMBALES, Olongapo City",14.9596538,120.1682216,smdh_smz@yaho o.com,Dr. Dante Jose D. Mercado,(047) 602-2301,Click the compass to find out!,https://www.google.com/maps/dir/?api=111
112,JAMES L. GORDON MEMORIAL HOSPITAL,"JAMES L. GORDON MEMORIAL HOSPITAL, CENTRAL LUZON, ZAMBALES, Olongapo City",14.8267698,120.280075,jlgordonmemorial hospital@gmail.c om,Dr. Jesse Jewel E. Manuel,"047-6021228 to
1230/0915499636
9/09090570395",Click the compass to find out!,https://www.google.com/maps/dir/?api=112
113,SOUTHERN TAGALOG REGIONAL HOSPITAL,"SOUTHERN TAGALOG REGIONAL HOSPITAL, CALABARZON, CAVITE",14.4414108,120.9472827,bdh_62@yahoo.c om,Dr. Ruby Ephraim M. Rubiano,(046) 431-0469,Click the compass to find out!,https://www.google.com/maps/dir/?api=113
114,KAWIT KALAYAAN HOSPITAL,"KAWIT KALAYAAN HOSPITAL, CALABARZON, CAVITE",14.4168383,120.8986264,kawitkalayaan@ya hoo.com,Dr. Lamberto J. Caingan,(046) 686-0124,Click the compass to find out!,https://www.google.com/maps/dir/?api=114
115,CAVITE NAVAL HOSPITAL,"CAVITE NAVAL HOSPITAL, CALABARZON, CAVITE, Cavite City",14.4830296,120.9144959,cavitenavalhospit al@yahoo.com,Ltcol. Ma. Jessica M. Vallaca,(046) 431-0469,Click the compass to find out!,https://www.google.com/maps/dir/?api=115
116,PAGAMUTAN NG DASMARIÑAS,"PAGAMUTAN NG DASMARIÑAS, CALABARZON, CAVITE, Dasmariñas City",14.3230026,120.961666,pagamutanngdas ma@gmail.com,Dr. Ma. Luisa Campos- Cagingin,4814400 loc. 703,Click the compass to find out!,https://www.google.com/maps/dir/?api=116
117,OSPITAL NG IMUS,"OSPITAL NG IMUS, CALABARZON, CAVITE, Imus City",14.3934029,120.9197512,oni_cavite.ph@g mail.com,Dr. Edgardo R. Figueroa,046-4198300,Click the compass to find out!,https://www.google.com/maps/dir/?api=117
118,GENERAL EMILIO AGUINALDO MEMORIAL HOSPITAL,"GENERAL EMILIO AGUINALDO MEMORIAL HOSPITAL, CALABARZON, CAVITE, Trece Martires City",14.2759968,120.8697399,"pho1_geamh@ya hoo.com/ kpfh_2002@yahoo
.com","Dr, Romulo U. Sua","046-
4190063/4191465",Click the compass to find out!,https://www.google.com/maps/dir/?api=118
119,LAGUNA PROVINCIAL HOSPITAL- GENERAL CAILLES MEMORIAL DISTRICT HOSPITAL,"LAGUNA PROVINCIAL HOSPITAL- GENERAL CAILLES MEMORIAL DISTRICT HOSPITAL, CALABARZON, LAGUNA",14.3854371,121.4781991,caillesjuan@yaho o.com.ph,Dr. Rudolfo C. Villarin,"(049) 557-0213 to
15",Click the compass to find out!,https://www.google.com/maps/dir/?api=119
120,LAGUNA PROVINCIAL HOSPITAL - LUISIANA DISTRICT HOSPITAL,"LAGUNA PROVINCIAL HOSPITAL - LUISIANA DISTRICT HOSPITAL, CALABARZON, LAGUNA",14.1853076,121.5091109,ldhlaguna@ymail. com,Dr. Ignacia M. Flores,(049) 503-6250,Click the compass to find out!,https://www.google.com/maps/dir/?api=120
121,LAGUNA PROVINCIAL HOSPITAL MAJAYJAY MEDICARE HOSPITAL,"LAGUNA PROVINCIAL HOSPITAL MAJAYJAY MEDICARE HOSPITAL, CALABARZON, LAGUNA",14.1462998,121.4708638,majayjaydistrictho spital@gmail.com,Dr. Ma. Theresa V. Lapitan,(049) 539-2991,Click the compass to find out!,https://www.google.com/maps/dir/?api=121
122,LAGUNA PROVINCIAL  HOSPITAL- NAGCARLAN DISTRICT HOSPITAL,"LAGUNA PROVINCIAL  HOSPITAL- NAGCARLAN DISTRICT HOSPITAL, CALABARZON, LAGUNA",14.1339808,121.4163166,None,Dr. Mona Lisa F. Cosme,(049) 563-1014,Click the compass to find out!,https://www.google.com/maps/dir/?api=122
123,OSPITAL NG BIÑAN,"OSPITAL NG BIÑAN, CALABARZON, LAGUNA",14.3369274,121.0741116,ospitalngbinan31 5@yahoo.com.ph,Dr. Melbril A. Alonte,(049) 511-4622,Click the compass to find out!,https://www.google.com/maps/dir/?api=123
124,LAGUNA PROVINCIAL HOSPITAL - BAY DISTRICT HOSPITAL,"LAGUNA PROVINCIAL HOSPITAL - BAY DISTRICT HOSPITAL, CALABARZON, LAGUNA",14.1734479,121.1942095,pplbay@yahoo.,Dr. Ferdinand Galvez,(049) 536-8357,Click the compass to find out!,https://www.google.com/maps/dir/?api=124
125,LAGUNA MEDICAL CENTER,"LAGUNA MEDICAL CENTER, CALABARZON, LAGUNA",14.2751154,121.4190146,laguna.provincial. hospital@gmail.c om,Dr. Judy Rondilla,"049-5433333 loc.
308",Click the compass to find out!,https://www.google.com/maps/dir/?api=125
126,SAN PEDRO JOSE L. AMANTE EMERGENCY HOSPITAL,"SAN PEDRO JOSE L. AMANTE EMERGENCY HOSPITAL, CALABARZON, LAGUNA",14.3674017,121.0587305,jlaeb2001@gmail. com,Dr. Robert Olivarez,(02) 478-5209,Click the compass to find out!,https://www.google.com/maps/dir/?api=126
127,UNIVERSITY HEALTH SERVICE,"UNIVERSITY HEALTH SERVICE, CALABARZON, LAGUNA",14.1760291,121.1907917,mpreano_21@yah oo.com,Dr. Imelda F. Walde,"(049) 536-2470
local 102",Click the compass to find out!,https://www.google.com/maps/dir/?api=127
128,DR. JOSE P. RIZAL MEMORIAL DISTRICT HOSPITAL,"DR. JOSE P. RIZAL MEMORIAL DISTRICT HOSPITAL, CALABARZON, LAGUNA, Calamba City",14.203425,121.1551094,"drjprizaag@yahoo
.com",Dr. Ma. Eloisa D. Inano,"502-1755/ 545-
0082",Click the compass to find out!,https://www.google.com/maps/dir/?api=128
129,OSPITAL NG CABUYAO,"OSPITAL NG CABUYAO, CALABARZON, LAGUNA, City of Cabuyao",14.2755453,121.1262332,ospitalngcabuyao onc@yahoo.com. ph,Dr.Gregorio Fabros,(049) 531-1193,Click the compass to find out!,https://www.google.com/maps/dir/?api=129
130,CABUYAO CITY HOSPITAL   (NEW),"CABUYAO CITY HOSPITAL   (NEW), CALABARZON, LAGUNA, City of Cabuyao",14.2471423,121.1366715,cabuyaocityhospit al@yahoo.com,Dr. Gregorio Fabros,xxx,Click the compass to find out!,https://www.google.com/maps/dir/?api=130
131,SANTA ROSA COMMUNITY HOSPITAL,"SANTA ROSA COMMUNITY HOSPITAL, CALABARZON, LAGUNA, Sta Rosa City",14.3184966,121.1106374,srch1995@yahoo. com,Dr. Parnel C. Pataksil,(049) 534-1801,Click the compass to find out!,https://www.google.com/maps/dir/?api=131
132,SAN PABLO CITY GENERAL HOSPITAL,"SAN PABLO CITY GENERAL HOSPITAL, CALABARZON, LAGUNA, San Pablo City",14.0627765,121.3437554,spch2000@gmail. com,Dr. James T. Lee Ho,(049) 503-1351,Click the compass to find out!,https://www.google.com/maps/dir/?api=132
133,LAGUNA PROVINCIAL HOSPITAL- SAN PABLO CITY DISTRICT HOSPITAL,"LAGUNA PROVINCIAL HOSPITAL- SAN PABLO CITY DISTRICT HOSPITAL, CALABARZON, LAGUNA, San Pablo City",14.0728641,121.3287454,pplspc@yahoo.co m,Dr. Edgar M. Palacol,049-5211677,Click the compass to find out!,https://www.google.com/maps/dir/?api=133
134,BAGONG CAINTA MUNICIPAL HOSPITAL,"BAGONG CAINTA MUNICIPAL HOSPITAL, CALABARZON, RIZAL",14.5764147,121.1163503,joy- sierra2001@yaho o.com,Dr. Antonio Jayson L. Sierra,477-5464,Click the compass to find out!,https://www.google.com/maps/dir/?api=134
135,CASIMIRO A. YNARES SR. MEMORIAL HOSPITAL,"CASIMIRO A. YNARES SR. MEMORIAL HOSPITAL, CALABARZON, RIZAL",14.7143152,121.1346037,rphscaysmh2013 @gmail.com,Dr. Ronnie N. Noo,570-8360,Click the compass to find out!,https://www.google.com/maps/dir/?api=135
136,RIZAL PROV'L HOSP.SYSTEM- ANGONO ANNEX,"RIZAL PROV'L HOSP.SYSTEM- ANGONO ANNEX, CALABARZON, RIZAL",14.5386796,121.1595008,None,Dr. Mylanie C. Jacinto,651-2253,Click the compass to find out!,https://www.google.com/maps/dir/?api=136
137,RIZAL PROVINCIAL HOSPITAL SYSTEM - BINANGONAN ANNEX,"RIZAL PROVINCIAL HOSPITAL SYSTEM - BINANGONAN ANNEX, CALABARZON, RIZAL",14.5266671,121.1521308,rphsbinangonan @gmail.com,Dr. Angel Q. Daquigan,620-2400,Click the compass to find out!,https://www.google.com/maps/dir/?api=137
138,RIZAL PROVINCIAL HOSPITAL SYTEM-MORONG MAIN,"RIZAL PROVINCIAL HOSPITAL SYTEM-MORONG MAIN, CALABARZON, RIZAL",14.5165896,121.239384,rph@yahoo.com,"JAIME J. AMAGSILA, MD",653-1053,Click the compass to find out!,https://www.google.com/maps/dir/?api=138
139,ANTIPOLO CITY HOSPITAL SYSTEM - CABADING,"ANTIPOLO CITY HOSPITAL SYSTEM - CABADING, CALABARZON, RIZAL, Antipolo City",14.620564,121.1278346,"achs3_lab@yahoo
.com",Dr. Rizza Jane R. Vinluan,475-1876,Click the compass to find out!,https://www.google.com/maps/dir/?api=139
140,ANTIPOLO CITY HOSPITAL SYSTEM IV - MAMBUGAN,"ANTIPOLO CITY HOSPITAL SYSTEM IV - MAMBUGAN, CALABARZON, RIZAL, Antipolo City",14.620564,121.1278346,achsmambugan@ yahoo.com,Dr. Virgilio Zafra,2403314,Click the compass to find out!,https://www.google.com/maps/dir/?api=140
141,RIZAL PROVINCIAL HOSPITAL SYSTEM-ANTIPOLO ANNEX,"RIZAL PROVINCIAL HOSPITAL SYSTEM-ANTIPOLO ANNEX, CALABARZON, RIZAL, Antipolo City",14.6195413,121.1803432,rphsangonoannex @yahoo.com,Dr. Sonny Barreto,639-5034,Click the compass to find out!,https://www.google.com/maps/dir/?api=141
142,RIZAL PROVINCIAL HOSPITAL SYSTEM-ANTIPOLO ANNEX II,"RIZAL PROVINCIAL HOSPITAL SYSTEM-ANTIPOLO ANNEX II, CALABARZON, RIZAL, Antipolo City",14.5781878,121.1860525,None,Dr. Aline G. Ibasco - Coronado,997-9401,Click the compass to find out!,https://www.google.com/maps/dir/?api=142
143,APACIBLE MEMORIAL DIST. HOSPITAL,"APACIBLE MEMORIAL DIST. HOSPITAL, CALABARZON, BATANGAS",14.051038,120.6472732,apaciblememorial districthospital@y ahoo.com,Dr. Gilma Arcales,O9175346607,Click the compass to find out!,https://www.google.com/maps/dir/?api=143
144,"BATANGAS PROVINCIAL
HOSPITAL (DON JUAN MAYUGA MEMORIAL HOSPITAL)","BATANGAS PROVINCIAL
HOSPITAL (DON JUAN MAYUGA MEMORIAL HOSPITAL), CALABARZON, BATANGAS",13.929402,120.876124,batprohospital@y ahoo.com,Dr. Jose Jesse I. Villanueva,(043) 409-0573,Click the compass to find out!,https://www.google.com/maps/dir/?api=144
145,BAUAN GENERAL HOSPITAL,"BAUAN GENERAL HOSPITAL, CALABARZON, BATANGAS",13.787258,121.009327,bghospital_13@y ahoo.com,Dr. Maria Dolores Bondoc,(043)722-0550,Click the compass to find out!,https://www.google.com/maps/dir/?api=145
146,DON MANUEL LOPEZ MEM. DIST. HOSPITAL,"DON MANUEL LOPEZ MEM. DIST. HOSPITAL, CALABARZON, BATANGAS",13.759985,121.057851,donmanuellopezh ospital@yahoo.co m,Dr. Antonio C. Hernandez,(043)980-0541,Click the compass to find out!,https://www.google.com/maps/dir/?api=146
147,LOBO MUNICIPAL HOSPITAL,"LOBO MUNICIPAL HOSPITAL, CALABARZON, BATANGAS",13.6430826,121.2023287,lobo_municipal_h ospital@yahoo.co m,Dr. Priscilla S. Sulit,O9178864297,Click the compass to find out!,https://www.google.com/maps/dir/?api=147
148,MAHAL NA VIRGEN MARIA STO.ROSARIO DISTRICT HOSPITAL,"MAHAL NA VIRGEN MARIA STO.ROSARIO DISTRICT HOSPITAL, CALABARZON, BATANGAS",13.844015,121.1970991,mvmstorosariodis tricthospital@yah oo.com,Dr. Augustus Caesar P. Apalisok,(043) 706-4137,Click the compass to find out!,https://www.google.com/maps/dir/?api=148
149,MARTIN MARASIGAN DISTRICT HOSPITAL,"MARTIN MARASIGAN DISTRICT HOSPITAL, CALABARZON, BATANGAS",13.9008821,121.0534013,martinmarasigan1 980@yahoo.com,Dr. Ednel M. Adajar,(043) 740-1381,Click the compass to find out!,https://www.google.com/maps/dir/?api=149
150,SAN JOSE DISTRICT HOSPITAL,"SAN JOSE DISTRICT HOSPITAL, CALABARZON, BATANGAS",13.886524,121.104883,sjdhbats_78@yah oo.com,Dr. Reynaldo C. Ozaeta,(043)726-0158,Click the compass to find out!,https://www.google.com/maps/dir/?api=150
151,SAN JUAN DISTRICT HOSPITAL,"SAN JUAN DISTRICT HOSPITAL, CALABARZON, BATANGAS",13.8092647,121.4018851,sanjuandistrictho spital@yahoo.co m,Dr. Danilo Dimaunahan,(043) 575-3756,Click the compass to find out!,https://www.google.com/maps/dir/?api=151
152,BATANGAS MEDICAL CENTER,"BATANGAS MEDICAL CENTER, CALABARZON, BATANGAS, Batangas City",13.7668617,121.0663041,batmedcen@yaho o.com.ph,Dr. Ramoncito C. Magnaye,043-7408303-07,Click the compass to find out!,https://www.google.com/maps/dir/?api=152
153,FERNANDO AIR BASE HOSPITAL,"FERNANDO AIR BASE HOSPITAL, CALABARZON, BATANGAS, Lipa City",13.946857,121.127183,fab_hospital@yah oo.com,LTC. Alekhine C. Tinio,(043)778- 1810/0960,Click the compass to find out!,https://www.google.com/maps/dir/?api=153
154,LIPA CITY DISTRICT HOSPITAL,"LIPA CITY DISTRICT HOSPITAL, CALABARZON, BATANGAS, Lipa City",13.9335545,121.158891,lcdh_chona@yah oo.com.ph,Dr. Luisito Briones,455-3175,Click the compass to find out!,https://www.google.com/maps/dir/?api=154
155,OSPITAL NG LIPA,"OSPITAL NG LIPA, CALABARZON, BATANGAS, Lipa City",13.9572247,121.1623585,ospitalnglipa2013 @gmail.com,Dr. Percival V. Lojo,(043) 702-1805,Click the compass to find out!,https://www.google.com/maps/dir/?api=155
156,LAUREL MEMORIAL DISTRICT HOSPITAL,"LAUREL MEMORIAL DISTRICT HOSPITAL, CALABARZON, BATANGAS, Tanauan City",14.0886952,121.1227699,lmdh36c@yahoo. com,Dr. Venus De Grano,(043)723-3011,Click the compass to find out!,https://www.google.com/maps/dir/?api=156
157,ALABAT ISLAND DISTRICT HOSPITAL,"ALABAT ISLAND DISTRICT HOSPITAL, CALABARZON, QUEZON",14.1018247,122.0146772,trsjr_2@yahoo.co m,Dr. Teodoro Serrano,(042) 302-8028,Click the compass to find out!,https://www.google.com/maps/dir/?api=157
158,BONDOC PENINSULA DISTRICT HOSPITAL,"BONDOC PENINSULA DISTRICT HOSPITAL, CALABARZON, QUEZON",13.591756,122.3251007,bpdhcatanauan@ gmail.com,Dr. Rosaline A. Ojastro,(042) 315-8413,Click the compass to find out!,https://www.google.com/maps/dir/?api=158
159,CLARO M. RECTO MEMORIAL DISTRICT  HOSPITAL,"CLARO M. RECTO MEMORIAL DISTRICT  HOSPITAL, CALABARZON, QUEZON",14.7126683,121.620434,cmrmdh@yahoo.c om,Dr. Corazon A. Delos Reyes,(042) 535-2882,Click the compass to find out!,https://www.google.com/maps/dir/?api=159
160,DOÑA MARTA MEMORIAL DISTRICT HOSPITAL,"DOÑA MARTA MEMORIAL DISTRICT HOSPITAL, CALABARZON, QUEZON",13.9985628,121.9224147,dmmdh_atiomona n.quezon@yahoo. com,Dr. Arnulfo Imperial,(042) 316-5326,Click the compass to find out!,https://www.google.com/maps/dir/?api=160
161,GUINAYANGAN MEDICARE COMMUNITY HOSPITAL,"GUINAYANGAN MEDICARE COMMUNITY HOSPITAL, CALABARZON, QUEZON",13.9250069,122.4268174,gmch_fravergara @yahoo.com.ph,Dr. Florencia A. Vergara,(042) 303-4462,Click the compass to find out!,https://www.google.com/maps/dir/?api=161
162,GUMACA DISTRICT HOSPITAL,"GUMACA DISTRICT HOSPITAL, CALABARZON, QUEZON",13.9332368,122.0895527,gdh_011658@yah oo.com,Dr. Sonny Ching,(042) 317-4818,Click the compass to find out!,https://www.google.com/maps/dir/?api=162
163,MAGSAYSAY MEMORIAL DISTRICT HOSPITAL,"MAGSAYSAY MEMORIAL DISTRICT HOSPITAL, CALABARZON, QUEZON",13.8860043,122.2643369,mmdhlopezquezo n@yahoo.com,Dr. Wilson T. Rivera,(042) 302-6030,Click the compass to find out!,https://www.google.com/maps/dir/?api=163
164,MARIA L. ELEAZAR MEMORIAL DISTRICT HOSPITAL,"MARIA L. ELEAZAR MEMORIAL DISTRICT HOSPITAL, CALABARZON, QUEZON",13.9662296,122.5429621,mledh_tagkawaya nquezon@yahoo. com,Dr. Reynaldo E. Florino,(042) 304-8738,Click the compass to find out!,https://www.google.com/maps/dir/?api=164
165,MAUBAN DISTRICT HOSPITAL,"MAUBAN DISTRICT HOSPITAL, CALABARZON, QUEZON",14.1749586,121.7177697,"maubandistrictho
spital@yahoo.co m",Dr. Edwin Aguirre,(042) 784-0216,Click the compass to find out!,https://www.google.com/maps/dir/?api=165
166,SAN FRANCISCO MUNICIPAL HOSPITAL,"SAN FRANCISCO MUNICIPAL HOSPITAL, CALABARZON, QUEZON",13.3521079,122.5217521,sf_mhospital@ya hoo.com,Dr. Mario L. Lopez,O9196824025,Click the compass to find out!,https://www.google.com/maps/dir/?api=166
167,SAN NARCISO MUNICIPAL HOSPITAL,"SAN NARCISO MUNICIPAL HOSPITAL, CALABARZON, QUEZON",13.5689256,122.5587052,sannarcisomunici palhospital@yaho o.com,Dr. Rosaline A. Ojastro,xxx,Click the compass to find out!,https://www.google.com/maps/dir/?api=167
168,UNISAN MEDICARE COMMUNITY HOSPITAL,"UNISAN MEDICARE COMMUNITY HOSPITAL, CALABARZON, QUEZON",13.843291,121.973189,conglancion@yah oo.com,Jesus Maralit Calayag,(042) 549-8362,Click the compass to find out!,https://www.google.com/maps/dir/?api=168
169,QUEZON MEDICAL CENTER,"QUEZON MEDICAL CENTER, CALABARZON, QUEZON, Lucena City",13.9421847,121.6124675,quezon.medicalce nter@yahoo.com. ph,Dr. Rolando A. Padre,042-7103444,Click the compass to find out!,https://www.google.com/maps/dir/?api=169
170,ORIENTAL MINDORO PROVINCIAL HOSPITAL,"ORIENTAL MINDORO PROVINCIAL HOSPITAL, MIMAROPA, ORIENTAL MINDORO, Calapan City",13.376323,121.1777419,omphpgom@gmai l.com,Dr. Dante A. Nuestro,(043) 288-2661,Click the compass to find out!,https://www.google.com/maps/dir/?api=170
171,Oriental Mindoro Southern District Hospital,"Oriental Mindoro Southern District Hospital, MIMAROPA, ORIENTAL MINDORO",12.5981507,121.4925899,xxx@gmail.com,Dr. Jocel C. Caranzo,xxx,Click the compass to find out!,https://www.google.com/maps/dir/?api=171
172,Oriental Mindoro Central District Hospital,"Oriental Mindoro Central District Hospital, MIMAROPA, ORIENTAL MINDORO",13.0021586,121.4785579,xxx@gmail.com,Dr. Guillermo A. Gonzales,xxx,Click the compass to find out!,https://www.google.com/maps/dir/?api=172
173,OCCIDENTAL MINDORO PROVINCIAL HOSPITAL,"OCCIDENTAL MINDORO PROVINCIAL HOSPITAL, MIMAROPA, OCCIDENTAL MINDORO",13.2306708,120.5860069,omph_mamburao @yahoo.com,Dr. Reynaldo A. Feratero,"(043) 711-1136 /
711-3020",Click the compass to find out!,https://www.google.com/maps/dir/?api=173
174,SAN JOSE DISTRICT HOSPITAL,"SAN JOSE DISTRICT HOSPITAL, MIMAROPA, OCCIDENTAL MINDORO",12.4002456,121.053397,san_josedistrict@ yahoo.com,Dr. Apolonio C. Domingo Jr.,xxx,Click the compass to find out!,https://www.google.com/maps/dir/?api=174
175,SAN SEBASTIAN DISTRICT HOSPITAL,"SAN SEBASTIAN DISTRICT HOSPITAL, MIMAROPA, OCCIDENTAL MINDORO",12.8456375,120.7871515,"sansebastiandistri cthospital@yahoo
.com",Dr. Romualdo M. Salazar,9461235750,Click the compass to find out!,https://www.google.com/maps/dir/?api=175
176,MARINDUQUE PROVINCIAL HOSPITAL (DR. DAMIAN REYES PROVINCIAL HOSPITAL),"MARINDUQUE PROVINCIAL HOSPITAL (DR. DAMIAN REYES PROVINCIAL HOSPITAL), MIMAROPA, MARINDUQUE",13.442639,121.8290693,"damianreyesprov. hosp@yahoo.com
.ph",Dr. Manuel L. Zaratan,(042) 332-2490,Click the compass to find out!,https://www.google.com/maps/dir/?api=176
177,ROMBLON PROVINCIAL HOSPITAL,"ROMBLON PROVINCIAL HOSPITAL, MIMAROPA, ROMBLON",12.3944894,121.9841009,odrph@yahoo.co m,Dr. Benedict G. Anatalio,(042) 567-5151,Click the compass to find out!,https://www.google.com/maps/dir/?api=177
178,ROMBLON DISTRICT HOSPITAL,"ROMBLON DISTRICT HOSPITAL, MIMAROPA, ROMBLON",12.5857471,122.27166,xxx@gmail.com,Dr. Eugene N. Sionosa,xxx,Click the compass to find out!,https://www.google.com/maps/dir/?api=178
179,ABORLAN MEDICARE HOSPITAL,"ABORLAN MEDICARE HOSPITAL, MIMAROPA, PALAWAN",9.4345631,118.5494757,xxx@gmail.com,Dr. Stenely O. Manuel,xxx,Click the compass to find out!,https://www.google.com/maps/dir/?api=179
180,SOUTHERN PALAWAN PROVINCIAL HOSPITAL,"SOUTHERN PALAWAN PROVINCIAL HOSPITAL, MIMAROPA, PALAWAN",8.7931438,117.8356292,spphpalawan@ya hoo.com.ph,Dr. Amabel B. Labor,xxx,Click the compass to find out!,https://www.google.com/maps/dir/?api=180
181,CULION SANITARIUM AND GENERAL HOSPITAL,"CULION SANITARIUM AND GENERAL HOSPITAL, MIMAROPA, PALAWAN",11.8915352,120.0234139,doh_culsan@yah oo.com,"Dr. Arturo Cunanan, Jr.","09095607350/091
86427972",Click the compass to find out!,https://www.google.com/maps/dir/?api=181
182,Narra Municipal Hospital,"Narra Municipal Hospital, MIMAROPA, PALAWAN",9.2730917,118.4168997,xxx@gmail.com,Dr. Maria Arlin A. Josue,xxx,Click the compass to find out!,https://www.google.com/maps/dir/?api=182
183,NORTHERN PALAWAN PROVINCIAL HOSPITAL,"NORTHERN PALAWAN PROVINCIAL HOSPITAL, MIMAROPA, PALAWAN",10.8163075,119.4911714,npphsupply@gma il.com,Dr. Juvelito C. Ang,9365616762,Click the compass to find out!,https://www.google.com/maps/dir/?api=183
184,OSPITAL NG PALAWAN,"OSPITAL NG PALAWAN, MIMAROPA, PALAWAN, Puerto Princesa City",9.7478371,118.7442524,ospital.palawan@ yahoo.com,Dr. Melecio N. Dy,(048) 434-6864,Click the compass to find out!,https://www.google.com/maps/dir/?api=184
185,CAMP GENERAL ARTEMIO RICARTE STATION HOSPITAL,"CAMP GENERAL ARTEMIO RICARTE STATION HOSPITAL, MIMAROPA, PALAWAN, Puerto Princesa City",9.7469034,118.7709376,cgarshwescom@y ahoo.com,Maj. Wilfredo S. Abulencia,(048) 433-2311,Click the compass to find out!,https://www.google.com/maps/dir/?api=185
186,RAPU-RAPU DISTRICT HOSPITAL,"RAPU-RAPU DISTRICT HOSPITAL, BICOL, ALBAY",13.1885383,124.1316834,rapurapudistricth ospital@gmail.co m,Dr. Richmond C. Nuyda,9471806348,Click the compass to find out!,https://www.google.com/maps/dir/?api=186
187,JOSEFINA BELMONTE DURAN MEMORIAL DISTRICT HOSPITAL,"JOSEFINA BELMONTE DURAN MEMORIAL DISTRICT HOSPITAL, BICOL, ALBAY, Ligao City",13.239343,123.556444,jbdmdh@yahoo.c om,Dr. Antonio S. Ludovice,xxx,Click the compass to find out!,https://www.google.com/maps/dir/?api=187
188,LEGAZPI CITY HOSPITAL,"LEGAZPI CITY HOSPITAL, BICOL, ALBAY, Legazpi City",13.1453779,123.744704,legazpicityhospita l8818@gmail.com,"Dr. Jose Q. Relacion, Jr.",xxx,Click the compass to find out!,https://www.google.com/maps/dir/?api=188
189,BICOL REGIONAL TRAINING AND TEACHING HOSPITAL,"BICOL REGIONAL TRAINING AND TEACHING HOSPITAL, BICOL, ALBAY, Legazpi City",13.1470067,123.7247044,brtth_cares@yaho o.com,Dr. Rogelio G. Rivera,(052) 732 5591,Click the compass to find out!,https://www.google.com/maps/dir/?api=189
190,DR. LORENZO T. ZIGA MEMORIAL DISTRICT HOSPITAL (FORMERLY ZIGA MEMORIAL DISTRICT HOSPITAL),"DR. LORENZO T. ZIGA MEMORIAL DISTRICT HOSPITAL (FORMERLY ZIGA MEMORIAL DISTRICT HOSPITAL), BICOL, ALBAY, Tabaco City",13.3578823,123.7216729,"zigamemorialdistr icthospital@gmail
.com",Dr. Ma. Theresa Belarma,487-5576,Click the compass to find out!,https://www.google.com/maps/dir/?api=190
191,LABO DISTRICT HOSPITAL,"LABO DISTRICT HOSPITAL, BICOL, CAMARINES NORTE",14.1847333,122.7850135,ldh_hospital@yah oo.com,Dr. Jose Vernon A. Banal,(054) 885-0225,Click the compass to find out!,https://www.google.com/maps/dir/?api=191
192,CAMARINES NORTE PROVINCIAL HOSPITAL,"CAMARINES NORTE PROVINCIAL HOSPITAL, BICOL, CAMARINES NORTE",14.1213072,122.9569715,cnph.pho.camnort egmail.com,Dr. Rachelle O. Diezmo,(054) 440-0218,Click the compass to find out!,https://www.google.com/maps/dir/?api=192
193,BICOL REGION GENERAL HOSPITAL AND GERIATRIC MEDICAL CENTER,"BICOL REGION GENERAL HOSPITAL AND GERIATRIC MEDICAL CENTER, BICOL, CAMARINES SUR",13.766734,123.0318597,bicolsan@yahoo. com,Dr. Edgardo R. Sarmiento,054 - 472 4422,Click the compass to find out!,https://www.google.com/maps/dir/?api=193
194,LIBMANAN DISTRICT HOSPITAL,"LIBMANAN DISTRICT HOSPITAL, BICOL, CAMARINES SUR",13.7013609,123.0543468,libmananhospital @camarinessur.g ov.ph,Dr. Dennis Joseph C. Reforma,(054) 511- 8760/511-8225,Click the compass to find out!,https://www.google.com/maps/dir/?api=194
195,NAGA CITY HOSPITAL,"NAGA CITY HOSPITAL, BICOL, CAMARINES SUR, Naga City",13.6292483,123.1899316,nchospital25@gm ail.com,"Dr. Joseph S. Sanchez, MHSA, FPCHA",(056) 881-9580,Click the compass to find out!,https://www.google.com/maps/dir/?api=195
196,BICOL MEDICAL CENTER,"BICOL MEDICAL CENTER, BICOL, CAMARINES SUR, Naga City",13.6228858,123.1986953,bmc.nagacity@g mail.com,Dr. Francisco D. Sales,"054-4745041  /
4723434 /
4726131",Click the compass to find out!,https://www.google.com/maps/dir/?api=196
197,JUAN M. ALBERTO MEMORIAL DISTRICT HOSPITAL,"JUAN M. ALBERTO MEMORIAL DISTRICT HOSPITAL, BICOL, CATANDUANES",13.5977133,124.1088532,jmamdh@yahoo.c om.ph,Dr. Ma. Bessie Rodulfo- Zafe,xxx,Click the compass to find out!,https://www.google.com/maps/dir/?api=197
198,PANDAN DISTRICT HOSPITAL,"PANDAN DISTRICT HOSPITAL, BICOL, CATANDUANES",14.0465968,124.1712034,pdhthehealer@ya hoo.com,Dr. Rafael I. Mariano,xxx,Click the compass to find out!,https://www.google.com/maps/dir/?api=198
199,VIGA DISTRICT HOSPITAL,"VIGA DISTRICT HOSPITAL, BICOL, CATANDUANES",13.8716555,124.3138996,vigadistricthospit al@yahoo.com,Dr. Nerisa Guerrero,xxx,Click the compass to find out!,https://www.google.com/maps/dir/?api=199
